{"type": "FeatureCollection", "features": [{"type": "Feature", "geometry": {"type": "Point", "coordinates": [-118.5086272, 33.4325595]}, "properties": {"osm_id": 369169301, "name": "Two Harbors Amphibious Terminal Seaplane Base", "icao": null, "iata": null}}, {"type": "Feature", "geometry": {"type": "Point", "coordinates": [-118.3114218, 33.3368096]}, "properties": {"osm_id": 369169303, "name": "Pebbly Beach Seaplane Base", "icao": null, "iata": null}}, {"type": "Feature", "geometry": {"type": "Point", "coordinates": [-118.3025786, 34.9052534]}, "properties": {"osm_id": 369170313, "name": "Lloyds Landing Airport", "icao": null, "iata": null}}, {"type": "Feature", "geometry": {"type": "Point", "coordinates": [-117.627968, 35.5915866]}, "properties": {"osm_id": 369170553, "name": "Tera Ultralight Flightpark", "icao": null, "iata": null}}, {"type": "Feature", "geometry": {"type": "Point", "coordinates": [-117.8222943, 34.5932314]}, "properties": {"osm_id": 369170665, "name": "Nichols Farms Airport", "icao": null, "iata": null}}, {"type": "Feature", "geometry": {"type": "Point", "coordinates": [-116.103902, 35.1491495]}, "properties": {"osm_id": 369170746, "name": "Zzyzx Airstrip", "icao": null, "iata": null}}, {"type": "Feature", "geometry": {"type": "Point", "coordinates": [-116.5805768, 34.3372246]}, "properties": {"osm_id": 369171019, "name": "Valley Vista Airport", "icao": null, "iata": null}}, {"type": "Feature", "geometry": {"type": "Point", "coordinates": [-115.9900012, 33.283651]}, "properties": {"osm_id": 369171023, "name": "Salton Sea Base B-2", "icao": null, "iata": null}}, {"type": "Feature", "geometry": {"type": "Point", "coordinates": [-116.6761423, 34.9613733]}, "properties": {"osm_id": 369171045, "name": "Harvard Airport", "icao": null, "iata": null}}, {"type": "Feature", "geometry": {"type": "Point", "coordinates": [-116.0001072, 34.2082038]}, "properties": {"osm_id": 369171165, "name": "Dick Dale Skyranch", "icao": null, "iata": null}}, {"type": "Feature", "geometry": {"type": "Point", "coordinates": [-115.9943507, 34.1620335]}, "properties": {"osm_id": 369171169, "name": "Crosswinds Airport", "icao": null, "iata": null}}, {"type": "Feature", "geometry": {"type": "Point", "coordinates": [-116.0488912, 34.1627797]}, "properties": {"osm_id": 369171171, "name": "Cones Field", "icao": null, "iata": null}}, {"type": "Feature", "geometry": {"type": "Point", "coordinates": [-117.1514, 34.3042]}, "properties": {"osm_id": 369174043, "name": "Lake Arrowhead Airport", "icao": null, "iata": null}}, {"type": "Feature", "geometry": {"type": "Point", "coordinates": [-116.6386, 32.5403]}, "properties": {"osm_id": 388977741, "name": "Tecate Airport", "icao": null, "iata": null}}, {"type": "Feature", "geometry": {"type": "Point", "coordinates": [-116.161052, 34.2962376]}, "properties": {"osm_id": 973472283, "name": "Twentynine Palms Strategic Expeditionary Landing Field", "icao": "KNXP", "iata": null}}, {"type": "Feature", "geometry": {"type": "Point", "coordinates": [-117.214996, 32.6991997]}, "properties": {"osm_id": 1042045901, "name": "North Island Naval Air Station", "icao": "KNZY", "iata": "NZY"}}, {"type": "Feature", "geometry": {"type": "Point", "coordinates": [-117.0284839, 34.4574381]}, "properties": {"osm_id": 5813843132, "name": "Rabbit Ranch Airport", "icao": null, "iata": null}}, {"type": "Feature", "geometry": {"type": "Point", "coordinates": [-117.240591, 33.5655804]}, "properties": {"osm_id": 5847705042, "name": "Bear Creek Airport", "icao": null, "iata": null}}, {"type": "Feature", "geometry": {"type": "Point", "coordinates": [-115.9247217, 33.2650401]}, "properties": {"osm_id": 5852365083, "name": "Salton Sea Test Base B-1", "icao": null, "iata": null}}, {"type": "Feature", "geometry": {"type": "Point", "coordinates": [-117.9618766, 34.8655388]}, "properties": {"osm_id": 5877078765, "name": "Barnes Airfield (historical)", "icao": null, "iata": null}}, {"type": "Feature", "geometry": {"type": "Point", "coordinates": [-118.5935734, 35.114075]}, "properties": {"osm_id": 5877078773, "name": "PSK Ranch Airport", "icao": null, "iata": null}}, {"type": "Feature", "geometry": {"type": "Point", "coordinates": [-116.4697284, 33.0011339]}, "properties": {"osm_id": 6721615864, "name": "Private Airstrip", "icao": null, "iata": null}}, {"type": "Feature", "geometry": {"type": "Point", "coordinates": [-116.4115135, 32.9718885]}, "properties": {"osm_id": 6721615865, "name": "Rancho Vallecito Airstrip", "icao": null, "iata": null}}, {"type": "Feature", "geometry": {"type": "Point", "coordinates": [-118.9426463, 34.1991078]}, "properties": {"osm_id": 12832367617, "name": "Conejo Valley Flyers", "icao": null, "iata": null}}, {"type": "Feature", "geometry": {"type": "Point", "coordinates": [-117.146282, 34.0845865]}, "properties": {"osm_id": 17012632, "name": "Redlands Municipal Airport", "icao": "KREI", "iata": null}}, {"type": "Feature", "geometry": {"type": "Point", "coordinates": [-117.2042563, 32.6986629]}, "properties": {"osm_id": 31929333, "name": "Naval Air Station North Island", "icao": "KNZY", "iata": "NZY"}}, {"type": "Feature", "geometry": {"type": "Point", "coordinates": [-119.0616336, 34.3468587]}, "properties": {"osm_id": 44289036, "name": "Santa Paula Airport", "icao": "KSZP", "iata": "SZP"}}, {"type": "Feature", "geometry": {"type": "Point", "coordinates": [-118.1514247, 35.0585884]}, "properties": {"osm_id": 44402430, "name": "Mojave Air & Space Port / Civilian Flight Test Center", "icao": "KMHV", "iata": "MHV"}}, {"type": "Feature", "geometry": {"type": "Point", "coordinates": [-118.0169267, 35.150833]}, "properties": {"osm_id": 44402508, "name": "California City Municipal Airport", "icao": null, "iata": null}}, {"type": "Feature", "geometry": {"type": "Point", "coordinates": [-118.4241884, 35.0996416]}, "properties": {"osm_id": 44403204, "name": "Mountain Valley Airport", "icao": null, "iata": null}}, {"type": "Feature", "geometry": {"type": "Point", "coordinates": [-117.0223385, 33.7342239]}, "properties": {"osm_id": 44486176, "name": "Hemet-Ryan Airport", "icao": "KHMT", "iata": "HMT"}}, {"type": "Feature", "geometry": {"type": "Point", "coordinates": [-117.6027716, 33.8964312]}, "properties": {"osm_id": 44486232, "name": "Corona Municipal Airport", "icao": "KAJO", "iata": null}}, {"type": "Feature", "geometry": {"type": "Point", "coordinates": [-117.4103447, 33.9897724]}, "properties": {"osm_id": 44486246, "name": "Flabob Airport", "icao": "KRIR", "iata": "RIR"}}, {"type": "Feature", "geometry": {"type": "Point", "coordinates": [-117.3020709, 33.6306595]}, "properties": {"osm_id": 44486540, "name": "Skylark Field Airport", "icao": null, "iata": null}}, {"type": "Feature", "geometry": {"type": "Point", "coordinates": [-117.0021875, 33.1758962]}, "properties": {"osm_id": 44500649, "name": "Lake Wohlford Resort Airstrip", "icao": null, "iata": null}}, {"type": "Feature", "geometry": {"type": "Point", "coordinates": [-117.31195, 33.4590235]}, "properties": {"osm_id": 44501001, "name": "Private Landing Strip", "icao": null, "iata": null}}, {"type": "Feature", "geometry": {"type": "Point", "coordinates": [-116.9178775, 33.0398795]}, "properties": {"osm_id": 44501276, "name": "Ramona Airport", "icao": "KRNM", "iata": null}}, {"type": "Feature", "geometry": {"type": "Point", "coordinates": [-116.6712699, 33.2841394]}, "properties": {"osm_id": 44501655, "name": "Warner Springs Gliderport", "icao": null, "iata": null}}, {"type": "Feature", "geometry": {"type": "Point", "coordinates": [-116.2943716, 32.9555532]}, "properties": {"osm_id": 44501734, "name": "Agua Caliente Airport", "icao": null, "iata": null}}, {"type": "Feature", "geometry": {"type": "Point", "coordinates": [-117.3240256, 34.1928718]}, "properties": {"osm_id": 45101510, "name": "Andy Jackson Airpark", "icao": null, "iata": null}}, {"type": "Feature", "geometry": {"type": "Point", "coordinates": [-118.2438696, 33.8897129]}, "properties": {"osm_id": 49577646, "name": "Compton / Woodley Airport", "icao": "KCPM", "iata": "CPM"}}, {"type": "Feature", "geometry": {"type": "Point", "coordinates": [-118.2058432, 34.8694061]}, "properties": {"osm_id": 53052401, "name": "Rosamond Skypark", "icao": null, "iata": null}}, {"type": "Feature", "geometry": {"type": "Point", "coordinates": [-118.0337539, 34.0859686]}, "properties": {"osm_id": 80877748, "name": "San Gabriel Valley Airport", "icao": "KEMT", "iata": "EMT"}}, {"type": "Feature", "geometry": {"type": "Point", "coordinates": [-117.4988627, 34.7588198]}, "properties": {"osm_id": 82011941, "name": "Sun Hill Ranch Airport", "icao": null, "iata": null}}, {"type": "Feature", "geometry": {"type": "Point", "coordinates": [-118.43983, 35.1350427]}, "properties": {"osm_id": 82512066, "name": "Tehachapi Municipal Airport", "icao": "KTSP", "iata": "TSP"}}, {"type": "Feature", "geometry": {"type": "Point", "coordinates": [-117.1288568, 33.573682]}, "properties": {"osm_id": 91482992, "name": "French Valley Airport", "icao": null, "iata": "RBK"}}, {"type": "Feature", "geometry": {"type": "Point", "coordinates": [-116.9795496, 32.5720887]}, "properties": {"osm_id": 101603157, "name": "Brown Field Municipal Airport", "icao": "KSDM", "iata": "SDM"}}, {"type": "Feature", "geometry": {"type": "Point", "coordinates": [-116.8505336, 33.9228612]}, "properties": {"osm_id": 102549170, "name": "Banning Municipal Airport", "icao": "KBNG", "iata": "BNG"}}, {"type": "Feature", "geometry": {"type": "Point", "coordinates": [-118.2760799, 33.8550919]}, "properties": {"osm_id": 107755131, "name": "Goodyear Blimp Base Airport", "icao": null, "iata": null}}, {"type": "Feature", "geometry": {"type": "Point", "coordinates": [-117.2604361, 33.8837861]}, "properties": {"osm_id": 126516433, "name": "March Air Reserve Base", "icao": "KRIV", "iata": "RIV"}}, {"type": "Feature", "geometry": {"type": "Point", "coordinates": [-117.4410245, 33.9511051]}, "properties": {"osm_id": 127837011, "name": "Riverside Municipal Airport", "icao": "KRAL", "iata": "RAL"}}, {"type": "Feature", "geometry": {"type": "Point", "coordinates": [-118.0887689, 34.6267313]}, "properties": {"osm_id": 135245202, "name": "USAF Plant 42 / Palmdale Regional Airport", "icao": "KPMD", "iata": "PMD"}}, {"type": "Feature", "geometry": {"type": "Point", "coordinates": [-118.3139097, 34.5024327]}, "properties": {"osm_id": 135245540, "name": "Agua Dulce Airpark", "icao": null, "iata": null}}, {"type": "Feature", "geometry": {"type": "Point", "coordinates": [-117.670102, 34.5653098]}, "properties": {"osm_id": 135245937, "name": "Gray Butte Field Airport", "icao": null, "iata": null}}, {"type": "Feature", "geometry": {"type": "Point", "coordinates": [-118.7324344, 34.7671915]}, "properties": {"osm_id": 135246520, "name": "Quail Lake Sky Park Airport", "icao": null, "iata": null}}, {"type": "Feature", "geometry": {"type": "Point", "coordinates": [-117.2504859, 33.3545526]}, "properties": {"osm_id": 139812612, "name": "Fallbrook Community Airpark", "icao": null, "iata": null}}, {"type": "Feature", "geometry": {"type": "Point", "coordinates": [-118.3352145, 33.9226947]}, "properties": {"osm_id": 141973105, "name": "Hawthorne Municipal Airport", "icao": "KHHR", "iata": "HHR"}}, {"type": "Feature", "geometry": {"type": "Point", "coordinates": [-118.4518492, 34.0165655]}, "properties": {"osm_id": 142010684, "name": "Santa Monica Municipal Airport", "icao": "KSMO", "iata": "SMO"}}, {"type": "Feature", "geometry": {"type": "Point", "coordinates": [-117.6874768, 34.1116353]}, "properties": {"osm_id": 146651169, "name": "Cable Airport", "icao": "KCCB", "iata": "CCB"}}, {"type": "Feature", "geometry": {"type": "Point", "coordinates": [-116.6293185, 35.2796908]}, "properties": {"osm_id": 150351487, "name": "Bicycle Lake Army Airfield", "icao": "KBYS", "iata": "BYS"}}, {"type": "Feature", "geometry": {"type": "Point", "coordinates": [-116.8854168, 35.35476]}, "properties": {"osm_id": 152079512, "name": "Goldstone /GTS/ Airport", "icao": null, "iata": null}}, {"type": "Feature", "geometry": {"type": "Point", "coordinates": [-116.9731229, 32.8240638]}, "properties": {"osm_id": 162328604, "name": "Gillespie Field", "icao": "KSEE", "iata": "SEE"}}, {"type": "Feature", "geometry": {"type": "Point", "coordinates": [-116.8558901, 34.2632814]}, "properties": {"osm_id": 165621971, "name": "Big Bear City Airport", "icao": null, "iata": "RBF"}}, {"type": "Feature", "geometry": {"type": "Point", "coordinates": [-117.1872828, 34.5790666]}, "properties": {"osm_id": 165956579, "name": "Apple Valley Airport", "icao": "KAPV", "iata": "APV"}}, {"type": "Feature", "geometry": {"type": "Point", "coordinates": [-117.2788458, 33.1275466]}, "properties": {"osm_id": 171278464, "name": "McClellan-Palomar Airport", "icao": "KCRQ", "iata": "CLD"}}, {"type": "Feature", "geometry": {"type": "Point", "coordinates": [-115.6379472, 33.6982163]}, "properties": {"osm_id": 189392910, "name": "Julian Hinds Pump Plant Airstrip", "icao": null, "iata": null}}, {"type": "Feature", "geometry": {"type": "Point", "coordinates": [-117.9794088, 33.8718159]}, "properties": {"osm_id": 190180862, "name": "Fullerton Municipal Airport", "icao": "KFUL", "iata": "FUL"}}, {"type": "Feature", "geometry": {"type": "Point", "coordinates": [-118.3595868, 34.2035641]}, "properties": {"osm_id": 208935822, "name": "Hollywood Burbank Airport", "icao": "KBUR", "iata": "BUR"}}, {"type": "Feature", "geometry": {"type": "Point", "coordinates": [-117.1914072, 32.7339378]}, "properties": {"osm_id": 209694794, "name": "San Diego International Airport", "icao": "KSAN", "iata": "SAN"}}, {"type": "Feature", "geometry": {"type": "Point", "coordinates": [-116.3207049, 33.2589399]}, "properties": {"osm_id": 222953245, "name": "Borrego Valley Airport", "icao": null, "iata": "BXS"}}, {"type": "Feature", "geometry": {"type": "Point", "coordinates": [-118.3381344, 33.8027261]}, "properties": {"osm_id": 223887375, "name": "Zamperini Field", "icao": "KTOA", "iata": "TOA"}}, {"type": "Feature", "geometry": {"type": "Point", "coordinates": [-118.1509721, 33.8155851]}, "properties": {"osm_id": 311520978, "name": "Long Beach Airport", "icao": "KLGB", "iata": "LGB"}}, {"type": "Feature", "geometry": {"type": "Point", "coordinates": [-118.4925103, 34.2072747]}, "properties": {"osm_id": 312331907, "name": "Van Nuys Airport", "icao": "KVNY", "iata": "VNY"}}, {"type": "Feature", "geometry": {"type": "Point", "coordinates": [-117.6022119, 34.0555779]}, "properties": {"osm_id": 321769511, "name": "Ontario International Airport", "icao": "KONT", "iata": "ONT"}}, {"type": "Feature", "geometry": {"type": "Point", "coordinates": [-118.4124321, 34.2613319]}, "properties": {"osm_id": 362084327, "name": "Whiteman Airport", "icao": "KWHP", "iata": "WHP"}}, {"type": "Feature", "geometry": {"type": "Point", "coordinates": [-115.7103407, 33.6642293]}, "properties": {"osm_id": 362635491, "name": "Chiriaco Summit Airport", "icao": null, "iata": null}}, {"type": "Feature", "geometry": {"type": "Point", "coordinates": [-116.75235, 33.0698935]}, "properties": {"osm_id": 380073629, "name": "Flying T Ranch Airport", "icao": null, "iata": null}}, {"type": "Feature", "geometry": {"type": "Point", "coordinates": [-117.2342267, 34.0962964]}, "properties": {"osm_id": 384693364, "name": "San Bernardino International Airport", "icao": "KSBD", "iata": "SBD"}}, {"type": "Feature", "geometry": {"type": "Point", "coordinates": [-116.276251, 33.1937406]}, "properties": {"osm_id": 392757119, "name": "Borrego Air Ranch Airport", "icao": null, "iata": null}}, {"type": "Feature", "geometry": {"type": "Point", "coordinates": [-118.4155369, 33.4047473]}, "properties": {"osm_id": 400895117, "name": "Catalina Airport", "icao": "KAVX", "iata": "AVX"}}, {"type": "Feature", "geometry": {"type": "Point", "coordinates": [-117.2484159, 32.8899366]}, "properties": {"osm_id": 459665610, "name": "Torrey Pines Gliderport", "icao": null, "iata": null}}, {"type": "Feature", "geometry": {"type": "Point", "coordinates": [-118.2225037, 35.3833128]}, "properties": {"osm_id": 503114227, "name": "Kelso Valley Airport", "icao": null, "iata": null}}, {"type": "Feature", "geometry": {"type": "Point", "coordinates": [-117.4294771, 33.6440681]}, "properties": {"osm_id": 518627320, "name": "Mc Conville Airstrip", "icao": null, "iata": null}}, {"type": "Feature", "geometry": {"type": "Point", "coordinates": [-118.5876864, 33.022756]}, "properties": {"osm_id": 534911782, "name": "Naval Auxiliary Landing Field San Clemente Island", "icao": "KNUC", "iata": null}}, {"type": "Feature", "geometry": {"type": "Point", "coordinates": [-116.6085796, 34.4219722]}, "properties": {"osm_id": 614643414, "name": "B & E Ranch Airport", "icao": null, "iata": null}}, {"type": "Feature", "geometry": {"type": "Point", "coordinates": [-116.6173773, 34.4238148]}, "properties": {"osm_id": 614643415, "name": "Kelly Airport", "icao": null, "iata": null}}, {"type": "Feature", "geometry": {"type": "Point", "coordinates": [-116.6232389, 34.4140638]}, "properties": {"osm_id": 614643416, "name": "Abraham Ranch Airport", "icao": null, "iata": null}}, {"type": "Feature", "geometry": {"type": "Point", "coordinates": [-117.1377513, 34.8563605]}, "properties": {"osm_id": 614643417, "name": "Depue Airport", "icao": null, "iata": null}}, {"type": "Feature", "geometry": {"type": "Point", "coordinates": [-116.2526182, 34.1533728]}, "properties": {"osm_id": 614643418, "name": "Roy Williams Airport", "icao": null, "iata": null}}, {"type": "Feature", "geometry": {"type": "Point", "coordinates": [-117.3160934, 34.3772165]}, "properties": {"osm_id": 614643419, "name": "Hesperia Airport", "icao": null, "iata": null}}, {"type": "Feature", "geometry": {"type": "Point", "coordinates": [-117.350954, 34.711903]}, "properties": {"osm_id": 614643421, "name": "Palisades Ranch Airport", "icao": null, "iata": null}}, {"type": "Feature", "geometry": {"type": "Point", "coordinates": [-117.5983928, 34.6238282]}, "properties": {"osm_id": 614643427, "name": "El Mirage Field Adelanto Airport", "icao": null, "iata": null}}, {"type": "Feature", "geometry": {"type": "Point", "coordinates": [-116.7880409, 34.8576565]}, "properties": {"osm_id": 614643428, "name": "Barstow-Daggett Airport", "icao": "KDAG", "iata": "DAG"}}, {"type": "Feature", "geometry": {"type": "Point", "coordinates": [-117.6347765, 33.975385]}, "properties": {"osm_id": 614643429, "name": "Chino Airport", "icao": "KCNO", "iata": "CNO"}}, {"type": "Feature", "geometry": {"type": "Point", "coordinates": [-116.1585961, 34.7287464]}, "properties": {"osm_id": 614643430, "name": "Ludlow Airport", "icao": null, "iata": null}}, {"type": "Feature", "geometry": {"type": "Point", "coordinates": [-117.0784215, 34.5639223]}, "properties": {"osm_id": 614643433, "name": "Holiday Ranch Airport", "icao": null, "iata": null}}, {"type": "Feature", "geometry": {"type": "Point", "coordinates": [-117.4687621, 34.5412797]}, "properties": {"osm_id": 614643434, "name": "Adelanto Airport", "icao": null, "iata": null}}, {"type": "Feature", "geometry": {"type": "Point", "coordinates": [-117.6563216, 34.6304155]}, "properties": {"osm_id": 614643437, "name": "Hansen Airport", "icao": null, "iata": null}}, {"type": "Feature", "geometry": {"type": "Point", "coordinates": [-117.5557642, 34.5685127]}, "properties": {"osm_id": 614643439, "name": "Krey Field", "icao": null, "iata": null}}, {"type": "Feature", "geometry": {"type": "Point", "coordinates": [-117.3305142, 33.5127336]}, "properties": {"osm_id": 618707094, "name": "Tenaja Valley Airport", "icao": null, "iata": null}}, {"type": "Feature", "geometry": {"type": "Point", "coordinates": [-117.1093367, 33.6453918]}, "properties": {"osm_id": 618707095, "name": "Pines Airpark", "icao": null, "iata": null}}, {"type": "Feature", "geometry": {"type": "Point", "coordinates": [-117.2159474, 33.7647397]}, "properties": {"osm_id": 618707097, "name": "Perris Valley Airport", "icao": null, "iata": null}}, {"type": "Feature", "geometry": {"type": "Point", "coordinates": [-115.8738743, 33.4809473]}, "properties": {"osm_id": 618707098, "name": "Desert Air Sky Ranch", "icao": null, "iata": null}}, {"type": "Feature", "geometry": {"type": "Point", "coordinates": [-116.8832405, 33.5976236]}, "properties": {"osm_id": 618707099, "name": "Ernst Field", "icao": null, "iata": null}}, {"type": "Feature", "geometry": {"type": "Point", "coordinates": [-116.7967352, 33.5218702]}, "properties": {"osm_id": 618707101, "name": "Lake Riverside Estates Airport", "icao": null, "iata": null}}, {"type": "Feature", "geometry": {"type": "Point", "coordinates": [-115.9522685, 33.2419583]}, "properties": {"osm_id": 619291713, "name": "Salton Sea Airport", "icao": "KSAS", "iata": "SAS"}}, {"type": "Feature", "geometry": {"type": "Point", "coordinates": [-117.4564339, 33.2868978]}, "properties": {"osm_id": 621631343, "name": "MCOLF Camp Pendleton (Red Beach) Airport", "icao": "KNXF", "iata": null}}, {"type": "Feature", "geometry": {"type": "Point", "coordinates": [-117.0926144, 33.2578663]}, "properties": {"osm_id": 621631345, "name": "Blackinton Airport", "icao": null, "iata": null}}, {"type": "Feature", "geometry": {"type": "Point", "coordinates": [-116.7926475, 33.1792839]}, "properties": {"osm_id": 621631350, "name": "Loma Madera Ranch Airport", "icao": null, "iata": null}}, {"type": "Feature", "geometry": {"type": "Point", "coordinates": [-116.6406951, 32.6393196]}, "properties": {"osm_id": 621631360, "name": "Reider Ranch Airport", "icao": null, "iata": null}}, {"type": "Feature", "geometry": {"type": "Point", "coordinates": [-116.9976515, 33.3106816]}, "properties": {"osm_id": 621631364, "name": "Pauma Valley Air Park", "icao": null, "iata": null}}, {"type": "Feature", "geometry": {"type": "Point", "coordinates": [-116.4402361, 33.0816007]}, "properties": {"osm_id": 621631367, "name": "Hunts Sky Ranch", "icao": null, "iata": null}}, {"type": "Feature", "geometry": {"type": "Point", "coordinates": [-116.9905275, 33.3244083]}, "properties": {"osm_id": 621631368, "name": "Lyall-Roberts Airport", "icao": null, "iata": null}}, {"type": "Feature", "geometry": {"type": "Point", "coordinates": [-116.8904127, 32.63399]}, "properties": {"osm_id": 621631369, "name": "John Nichols Field", "icao": null, "iata": null}}, {"type": "Feature", "geometry": {"type": "Point", "coordinates": [-116.7472082, 33.1436319]}, "properties": {"osm_id": 621631684, "name": "Hoffman Private Airport", "icao": null, "iata": null}}, {"type": "Feature", "geometry": {"type": "Point", "coordinates": [-116.131994, 33.1495571]}, "properties": {"osm_id": 621631689, "name": "Ocotillo Airport", "icao": null, "iata": null}}, {"type": "Feature", "geometry": {"type": "Point", "coordinates": [-116.7226057, 32.7608206]}, "properties": {"osm_id": 621631696, "name": "On the Rocks Airport", "icao": null, "iata": null}}, {"type": "Feature", "geometry": {"type": "Point", "coordinates": [-117.826556, 34.4851515]}, "properties": {"osm_id": 621816683, "name": "Crystal Airport", "icao": null, "iata": null}}, {"type": "Feature", "geometry": {"type": "Point", "coordinates": [-117.7834968, 34.0906672]}, "properties": {"osm_id": 621816684, "name": "Brackett Field", "icao": "KPOC", "iata": "POC"}}, {"type": "Feature", "geometry": {"type": "Point", "coordinates": [-118.2173041, 34.7403426]}, "properties": {"osm_id": 621816685, "name": "General William J. Fox Airfield", "icao": "KWJF", "iata": "WJF"}}, {"type": "Feature", "geometry": {"type": "Point", "coordinates": [-118.2786195, 34.794391]}, "properties": {"osm_id": 621816687, "name": "Little Buttes Antique Airfield", "icao": null, "iata": null}}, {"type": "Feature", "geometry": {"type": "Point", "coordinates": [-117.7608982, 34.5156493]}, "properties": {"osm_id": 621835445, "name": "Brian Ranch Airport", "icao": null, "iata": null}}, {"type": "Feature", "geometry": {"type": "Point", "coordinates": [-119.0640521, 34.7575699]}, "properties": {"osm_id": 621842292, "name": "Conover Air Lodge Airport", "icao": null, "iata": null}}, {"type": "Feature", "geometry": {"type": "Point", "coordinates": [-118.4010644, 34.8316678]}, "properties": {"osm_id": 622150050, "name": "Skyotee Ranch Airport", "icao": null, "iata": null}}, {"type": "Feature", "geometry": {"type": "Point", "coordinates": [-118.1719353, 34.9425829]}, "properties": {"osm_id": 622150054, "name": "Pontious Airport", "icao": null, "iata": null}}, {"type": "Feature", "geometry": {"type": "Point", "coordinates": [-118.9145147, 34.9895123]}, "properties": {"osm_id": 622150057, "name": "Tejon Ag Airport", "icao": null, "iata": null}}, {"type": "Feature", "geometry": {"type": "Point", "coordinates": [-117.8651074, 34.9886441]}, "properties": {"osm_id": 622162706, "name": "Edwards Air Force Auxiliary North Base", "icao": null, "iata": null}}, {"type": "Feature", "geometry": {"type": "Point", "coordinates": [-118.4088321, 33.9421514]}, "properties": {"osm_id": 649268639, "name": "Los Angeles International Airport", "icao": "KLAX", "iata": "LAX"}}, {"type": "Feature", "geometry": {"type": "Point", "coordinates": [-117.1555286, 33.7097901]}, "properties": {"osm_id": 665215028, "name": "Menifee Flyers Club", "icao": null, "iata": null}}, {"type": "Feature", "geometry": {"type": "Point", "coordinates": [-117.8871799, 34.9539616]}, "properties": {"osm_id": 782139271, "name": "Armstrong Flight Research Center", "icao": null, "iata": null}}, {"type": "Feature", "geometry": {"type": "Point", "coordinates": [-117.3757905, 34.5997846]}, "properties": {"osm_id": 787664017, "name": "Southern California Logistics Airport", "icao": "KVCV", "iata": "VCV"}}, {"type": "Feature", "geometry": {"type": "Point", "coordinates": [-117.2661332, 34.5845519]}, "properties": {"osm_id": 801387784, "name": "Osborne Airport", "icao": null, "iata": null}}, {"type": "Feature", "geometry": {"type": "Point", "coordinates": [-117.1547317, 34.2351406]}, "properties": {"osm_id": 887681175, "name": "Heaps Peak USFS Heliport", "icao": null, "iata": null}}, {"type": "Feature", "geometry": {"type": "Point", "coordinates": [-116.4506708, 32.7169863]}, "properties": {"osm_id": 888038103, "name": "Pine Valley Border Patrol Station Heliport", "icao": null, "iata": null}}, {"type": "Feature", "geometry": {"type": "Point", "coordinates": [-118.1380268, 34.7003011]}, "properties": {"osm_id": 888038138, "name": "LA County Sheriff Lancaster Station Heliport", "icao": null, "iata": null}}, {"type": "Feature", "geometry": {"type": "Point", "coordinates": [-118.6096561, 34.4635307]}, "properties": {"osm_id": 888038145, "name": "Sheriff's Wayside Heliport", "icao": null, "iata": null}}, {"type": "Feature", "geometry": {"type": "Point", "coordinates": [-116.4610661, 33.0862966]}, "properties": {"osm_id": 1163736578, "name": "Kokopelli's Hideaway", "icao": null, "iata": null}}, {"type": "Feature", "geometry": {"type": "Point", "coordinates": [-115.9445162, 34.1275105]}, "properties": {"osm_id": 1190388565, "name": "Twentynine Palms Airport", "icao": "KTNP", "iata": "TNP"}}, {"type": "Feature", "geometry": {"type": "Point", "coordinates": [-117.602729, 34.5601487]}, "properties": {"osm_id": 1269015907, "name": "Antelope Valley Soaring Club", "icao": null, "iata": null}}, {"type": "Feature", "geometry": {"type": "Point", "coordinates": [-116.4069789, 34.1299864]}, "properties": {"osm_id": 1415684031, "name": "Yucca Valley Airport", "icao": null, "iata": null}}, {"type": "Feature", "geometry": {"type": "Point", "coordinates": [-118.4877949, 34.9624252]}, "properties": {"osm_id": 1446931438, "name": "White Oak Lodge Landing Field", "icao": null, "iata": null}}, {"type": "Feature", "geometry": {"type": "Point", "coordinates": [-118.3035252, 34.90587]}, "properties": {"osm_id": 1446931446, "name": "Lloyds Landing Airport", "icao": null, "iata": null}}, {"type": "Feature", "geometry": {"type": "Point", "coordinates": [-118.2773377, 34.6946541]}, "properties": {"osm_id": 1453758380, "name": "Bohunks Airpark", "icao": null, "iata": null}}, {"type": "Feature", "geometry": {"type": "Point", "coordinates": [-117.2477051, 33.8735805]}, "properties": {"osm_id": 1465007780, "name": "March Inland Port Airport", "icao": "KRIV", "iata": "RIV"}}, {"type": "Feature", "geometry": {"type": "Point", "coordinates": [-117.3747357, 34.9229049]}, "properties": {"osm_id": 1545740257, "name": "Hawes Auxiliary Airport", "icao": null, "iata": null}}, {"type": "Feature", "geometry": {"type": "Point", "coordinates": [-117.0434432, 33.7018615]}, "properties": {"osm_id": 1548534751, "name": "Hemet Model Masters Airpark - Simpson Field", "icao": null, "iata": null}}]}