{"type": "FeatureCollection", "features": [{"type": "Feature", "geometry": {"type": "MultiPolygon", "coordinates": [[[[-117.4279883, 33.9307262], [-117.4243741, 33.9327635], [-117.4242596, 33.9327475], [-117.4224568, 33.9305393], [-117.4215594, 33.9294136], [-117.4215597, 33.9293722], [-117.4214636, 33.9292506], [-117.4213857, 33.9292169], [-117.4203664, 33.9279746], [-117.420357, 33.9279506], [-117.4203606, 33.9279358], [-117.4206247, 33.9276272], [-117.4218293, 33.9268265], [-117.4228008, 33.9262326], [-117.4236513, 33.9257054], [-117.4258248, 33.9244519], [-117.4259931, 33.9243581], [-117.4266068, 33.9240492], [-117.4273731, 33.9236861], [-117.4273931, 33.923688], [-117.4279079, 33.9243035], [-117.4294884, 33.926251], [-117.4297088, 33.9265199], [-117.4314747, 33.9286732], [-117.431462, 33.9287265], [-117.4302441, 33.9294181], [-117.4301791, 33.9294743], [-117.4300933, 33.9295217], [-117.4300163, 33.9295477], [-117.4290958, 33.9300607], [-117.428295, 33.930526], [-117.4279927, 33.9306762], [-117.4279883, 33.9307262]]], [[[-117.4234006, 33.9321795], [-117.422851, 33.9324883], [-117.4222605, 33.9317604], [-117.4228104, 33.9314428], [-117.4234006, 33.9321795]]], [[[-117.4233269, 33.9333567], [-117.4228881, 33.9336047], [-117.4228589, 33.9335691], [-117.4228167, 33.9335525], [-117.4227709, 33.9335585], [-117.4226059, 33.9336517], [-117.4220959, 33.9330303], [-117.4227537, 33.9326585], [-117.4233269, 33.9333567]]], [[[-117.4293732, 33.9257096], [-117.4300304, 33.9253361], [-117.4303536, 33.9257159], [-117.4302759, 33.9257631], [-117.4304683, 33.9260043], [-117.4298713, 33.9263364], [-117.4293732, 33.9257096]]], [[[-117.4274374, 33.9315202], [-117.427453, 33.9314481], [-117.4277888, 33.9312552], [-117.4281137, 33.9316718], [-117.4277354, 33.9318779], [-117.4274374, 33.9315202]]], [[[-117.426341, 33.9320793], [-117.4269663, 33.9317228], [-117.4274244, 33.9322827], [-117.4273348, 33.932335], [-117.4275773, 33.9326276], [-117.4270411, 33.9329397], [-117.426341, 33.9320793]]]]}, "properties": {"osm_id": 13218766, "name": "California Baptist University"}}]}