{"type": "FeatureCollection", "features": [{"type": "Feature", "geometry": {"type": "Polygon", "coordinates": [[[-117.4231761, 33.9320414], [-117.4229664, 33.9321607], [-117.4229421, 33.9321313], [-117.42291, 33.9321496], [-117.4227764, 33.9319878], [-117.4227446, 33.9320059], [-117.4226019, 33.9318333], [-117.4226378, 33.9318129], [-117.4226162, 33.9317867], [-117.422821, 33.9316703], [-117.4228428, 33.9316967], [-117.4228751, 33.9316783], [-117.4230089, 33.9318403], [-117.423042, 33.9318214], [-117.4231855, 33.9319952], [-117.4231531, 33.9320136], [-117.4231761, 33.9320414]]]}, "properties": {"osm_id": 233662993, "name": "Engineering Building", "building": "yes", "amenity": null, "render_height": 8.0}}, {"type": "Feature", "geometry": {"type": "Polygon", "coordinates": [[[-117.4238982, 33.9319009], [-117.4237553, 33.9319804], [-117.4237497, 33.9319735], [-117.4237374, 33.9319803], [-117.4236402, 33.93186], [-117.4236553, 33.9318517], [-117.4236194, 33.9318072], [-117.4237799, 33.931718], [-117.4238474, 33.9318016], [-117.4238271, 33.9318128], [-117.4238982, 33.9319009]]]}, "properties": {"osm_id": 233662998, "name": "Bourns Engineering Lab", "building": "yes", "amenity": null, "render_height": 8.0}}, {"type": "Feature", "geometry": {"type": "Polygon", "coordinates": [[[-117.4211097, 33.9285351], [-117.4210182, 33.9285862], [-117.4211809, 33.928787], [-117.4212498, 33.9287485], [-117.4211733, 33.9286541], [-117.4211959, 33.9286415], [-117.4211097, 33.9285351]]]}, "properties": {"osm_id": 233663000, "name": "Baker's", "building": "yes", "amenity": "fast_food", "render_height": 8.0}}, {"type": "Feature", "geometry": {"type": "Polygon", "coordinates": [[[-117.422668, 33.9289427], [-117.4225585, 33.9288161], [-117.4223203, 33.9289506], [-117.4224463, 33.9290776], [-117.422668, 33.9289427]]]}, "properties": {"osm_id": 233663002, "name": null, "building": "yes", "amenity": null, "render_height": 8.0}}, {"type": "Feature", "geometry": {"type": "Polygon", "coordinates": [[[-117.4224463, 33.9290776], [-117.4225523, 33.9292168], [-117.4222763, 33.9293663], [-117.4221673, 33.9292334], [-117.4220563, 33.9290981], [-117.4223203, 33.9289506], [-117.4224463, 33.9290776]]]}, "properties": {"osm_id": 233663004, "name": null, "building": "yes", "amenity": null, "render_height": 8.0}}, {"type": "Feature", "geometry": {"type": "Polygon", "coordinates": [[[-117.4221673, 33.9292334], [-117.4219366, 33.929354], [-117.4218299, 33.9292283], [-117.4220563, 33.9290981], [-117.4221673, 33.9292334]]]}, "properties": {"osm_id": 233663007, "name": null, "building": "yes", "amenity": null, "render_height": 8.0}}, {"type": "Feature", "geometry": {"type": "Polygon", "coordinates": [[[-117.4222236, 33.9295119], [-117.4220818, 33.929591], [-117.422131, 33.9296517], [-117.4219642, 33.9297448], [-117.421914, 33.9296828], [-117.4219469, 33.9296644], [-117.4218168, 33.9295039], [-117.4220923, 33.92935], [-117.4222236, 33.9295119]]]}, "properties": {"osm_id": 233663010, "name": "Mail & Shipping Services", "building": "yes", "amenity": null, "render_height": 8.0}}, {"type": "Feature", "geometry": {"type": "Polygon", "coordinates": [[[-117.4223842, 33.9301189], [-117.4222337, 33.9301987], [-117.4220708, 33.929998], [-117.4222164, 33.9299223], [-117.4223842, 33.9301189]]]}, "properties": {"osm_id": 233663014, "name": null, "building": "yes", "amenity": null, "render_height": 8.0}}, {"type": "Feature", "geometry": {"type": "Polygon", "coordinates": [[[-117.4225915, 33.929994], [-117.4224064, 33.9300902], [-117.4223126, 33.9299776], [-117.4225002, 33.9298752], [-117.4225915, 33.929994]]]}, "properties": {"osm_id": 233663016, "name": null, "building": "yes", "amenity": null, "render_height": 8.0}}, {"type": "Feature", "geometry": {"type": "Polygon", "coordinates": [[[-117.4226532, 33.929953], [-117.422552, 33.9298383], [-117.4226508, 33.929781], [-117.4226705, 33.9298035], [-117.4229494, 33.9296601], [-117.4229642, 33.9296008], [-117.4230654, 33.9295496], [-117.4231641, 33.9296663], [-117.4226532, 33.929953]]]}, "properties": {"osm_id": 233663019, "name": null, "building": "yes", "amenity": null, "render_height": 8.0}}, {"type": "Feature", "geometry": {"type": "Polygon", "coordinates": [[[-117.4232195, 33.9296398], [-117.4231235, 33.9295272], [-117.4232585, 33.9294534], [-117.4232715, 33.9294739], [-117.4238975, 33.9291406], [-117.4239585, 33.9292188], [-117.4232195, 33.9296398]]]}, "properties": {"osm_id": 233663021, "name": null, "building": "yes", "amenity": null, "render_height": 8.0}}, {"type": "Feature", "geometry": {"type": "Polygon", "coordinates": [[[-117.423706, 33.9291676], [-117.423415, 33.9293396], [-117.423316, 33.929225], [-117.423418, 33.9291697], [-117.42344, 33.929182], [-117.42363, 33.9290775], [-117.423706, 33.9291676]]]}, "properties": {"osm_id": 233663023, "name": null, "building": "yes", "amenity": null, "render_height": 8.0}}, {"type": "Feature", "geometry": {"type": "Polygon", "coordinates": [[[-117.423526, 33.9289662], [-117.4233887, 33.9288821], [-117.4230324, 33.9292915], [-117.423168, 33.9293707], [-117.4232289, 33.9292945], [-117.423219, 33.9292812], [-117.4234307, 33.9290294], [-117.4234605, 33.9290369], [-117.423526, 33.9289662]]]}, "properties": {"osm_id": 233663024, "name": null, "building": "yes", "amenity": null, "render_height": 8.0}}, {"type": "Feature", "geometry": {"type": "Polygon", "coordinates": [[[-117.4231197, 33.9294083], [-117.422984, 33.9293366], [-117.4226631, 33.9296683], [-117.4227643, 33.9297216], [-117.4228754, 33.9296253], [-117.4228951, 33.9295967], [-117.423016, 33.9294656], [-117.4230506, 33.9294902], [-117.4231197, 33.9294083]]]}, "properties": {"osm_id": 233663026, "name": null, "building": "yes", "amenity": null, "render_height": 8.0}}, {"type": "Feature", "geometry": {"type": "Polygon", "coordinates": [[[-117.4279426, 33.9315835], [-117.4279183, 33.931554], [-117.4278766, 33.9315776], [-117.4278626, 33.9315606], [-117.4277296, 33.9316359], [-117.4277435, 33.9316529], [-117.4277048, 33.9316748], [-117.4277299, 33.9317053], [-117.4276766, 33.9317355], [-117.4275529, 33.9315859], [-117.4278709, 33.9314027], [-117.4279951, 33.9315537], [-117.4279426, 33.9315835]]]}, "properties": {"osm_id": 233663041, "name": "Lancer Palms", "building": "university", "amenity": null, "render_height": 8.0}}, {"type": "Feature", "geometry": {"type": "Polygon", "coordinates": [[[-117.423188, 33.9332293], [-117.4230251, 33.9333153], [-117.4228844, 33.9331556], [-117.4229042, 33.9331331], [-117.4228943, 33.9331167], [-117.423035, 33.933043], [-117.423188, 33.9332293]]]}, "properties": {"osm_id": 233663658, "name": "College Park Apartments", "building": "apartments", "amenity": null, "render_height": 8.0}}, {"type": "Feature", "geometry": {"type": "Polygon", "coordinates": [[[-117.4229486, 33.933301], [-117.4229486, 33.9333624], [-117.4228005, 33.9334546], [-117.422724, 33.9334505], [-117.4226574, 33.9333685], [-117.422687, 33.9333112], [-117.4228548, 33.9332047], [-117.4229486, 33.933301]]]}, "properties": {"osm_id": 233663659, "name": "College Park Apartments", "building": "apartments", "amenity": null, "render_height": 8.0}}, {"type": "Feature", "geometry": {"type": "Polygon", "coordinates": [[[-117.4229708, 33.9329713], [-117.4228079, 33.9330511], [-117.4226796, 33.9328935], [-117.4227067, 33.9328791], [-117.422687, 33.9328607], [-117.4227882, 33.9328095], [-117.4228672, 33.9328238], [-117.4229708, 33.9329713]]]}, "properties": {"osm_id": 233663660, "name": "College Park Apartments", "building": "apartments", "amenity": null, "render_height": 8.0}}, {"type": "Feature", "geometry": {"type": "Polygon", "coordinates": [[[-117.4227117, 33.9330245], [-117.4226376, 33.9329303], [-117.4225537, 33.9329385], [-117.4224426, 33.9329999], [-117.422418, 33.9330593], [-117.4224797, 33.9331433], [-117.422566, 33.9331494], [-117.4226796, 33.933086], [-117.4227117, 33.9330245]]]}, "properties": {"osm_id": 233663661, "name": "College Park Apartments", "building": "apartments", "amenity": null, "render_height": 8.0}}, {"type": "Feature", "geometry": {"type": "Polygon", "coordinates": [[[-117.4255482, 33.9259277], [-117.4254297, 33.9259932], [-117.4252471, 33.9257659], [-117.4252002, 33.9257884], [-117.4252273, 33.9258212], [-117.4249089, 33.9260014], [-117.4248226, 33.9259011], [-117.4251015, 33.9257454], [-117.4250743, 33.9257147], [-117.4250447, 33.925729], [-117.4248201, 33.9254771], [-117.424941, 33.9254054], [-117.4251286, 33.9256287], [-117.4251681, 33.9256061], [-117.4251484, 33.9255795], [-117.4254593, 33.9253993], [-117.4255433, 33.9254956], [-117.4252619, 33.9256532], [-117.4252964, 33.9256881], [-117.4253285, 33.9256696], [-117.4255482, 33.9259277]]]}, "properties": {"osm_id": 234178040, "name": "Simmons Hall", "building": "college", "amenity": null, "render_height": 8.0}}, {"type": "Feature", "geometry": {"type": "Polygon", "coordinates": [[[-117.425489, 33.9266957], [-117.4253631, 33.9267612], [-117.4251829, 33.926538], [-117.425136, 33.9265584], [-117.4251582, 33.9265892], [-117.4251261, 33.9266076], [-117.4250077, 33.9264806], [-117.4249706, 33.9265011], [-117.4247485, 33.9262431], [-117.4248744, 33.9261673], [-117.425062, 33.9263987], [-117.4250965, 33.9263782], [-117.4250718, 33.9263352], [-117.4251064, 33.9263209], [-117.4252249, 33.9264499], [-117.4252668, 33.9264294], [-117.425489, 33.9266957]]]}, "properties": {"osm_id": 234178041, "name": "Smith Hall", "building": "college", "amenity": null, "render_height": 8.0}}, {"type": "Feature", "geometry": {"type": "Polygon", "coordinates": [[[-117.4262497, 33.9280119], [-117.4261293, 33.9280791], [-117.4261377, 33.9280895], [-117.42589, 33.9282279], [-117.4258553, 33.9281851], [-117.4258485, 33.9281889], [-117.4257632, 33.9280841], [-117.4257414, 33.9280963], [-117.4256814, 33.9280226], [-117.4256692, 33.9280295], [-117.4256233, 33.9279731], [-117.4256356, 33.9279662], [-117.4256202, 33.9279474], [-117.4256519, 33.9279296], [-117.4256168, 33.9278866], [-117.4256073, 33.9278919], [-117.425539, 33.9278082], [-117.4256073, 33.9277699], [-117.4255813, 33.927738], [-117.4257139, 33.9276637], [-117.4257381, 33.9276933], [-117.4258954, 33.9276051], [-117.425963, 33.9276882], [-117.42594, 33.9277011], [-117.4259751, 33.9277443], [-117.4259798, 33.9277416], [-117.4260394, 33.927815], [-117.4260742, 33.9277956], [-117.4262497, 33.9280119]]]}, "properties": {"osm_id": 234178042, "name": "Hawkins Music Building", "building": "yes", "amenity": null, "render_height": 8.0}}, {"type": "Feature", "geometry": {"type": "Polygon", "coordinates": [[[-117.4261571, 33.929285], [-117.4261217, 33.9292419], [-117.4260984, 33.9292551], [-117.426053, 33.9291997], [-117.4260759, 33.9291868], [-117.4259292, 33.9290081], [-117.4261338, 33.9288925], [-117.4261768, 33.928945], [-117.4262225, 33.9289191], [-117.4262412, 33.9289419], [-117.4261967, 33.928967], [-117.4263624, 33.929169], [-117.4261571, 33.929285]]]}, "properties": {"osm_id": 234178043, "name": "Wallace Theatre", "building": "yes", "amenity": null, "render_height": 8.0}}, {"type": "Feature", "geometry": {"type": "Polygon", "coordinates": [[[-117.4255453, 33.9289246], [-117.4254447, 33.9289823], [-117.4254574, 33.9289975], [-117.425246, 33.9291186], [-117.4252328, 33.9291027], [-117.4252252, 33.9291071], [-117.4251411, 33.929006], [-117.4254607, 33.928823], [-117.4255453, 33.9289246]]]}, "properties": {"osm_id": 234178044, "name": "Central Plant", "building": "yes", "amenity": null, "render_height": 8.0}}, {"type": "Feature", "geometry": {"type": "Polygon", "coordinates": [[[-117.4260315, 33.9293594], [-117.4257088, 33.9295423], [-117.4256916, 33.9295215], [-117.4256617, 33.9295385], [-117.425351, 33.9291611], [-117.4255279, 33.9290609], [-117.4256406, 33.9291978], [-117.4256648, 33.9291841], [-117.425694, 33.9292195], [-117.4256734, 33.9292312], [-117.4257002, 33.9292638], [-117.4256694, 33.9292812], [-117.425768, 33.929401], [-117.4258541, 33.9293522], [-117.4257865, 33.92927], [-117.4258171, 33.9292526], [-117.4257941, 33.9292247], [-117.4258487, 33.9291937], [-117.4258716, 33.9292215], [-117.4259032, 33.9292035], [-117.4260315, 33.9293594]]]}, "properties": {"osm_id": 234178045, "name": "Annie Gabriel Library", "building": "yes", "amenity": null, "render_height": 8.0}}, {"type": "Feature", "geometry": {"type": "Polygon", "coordinates": [[[-117.426793, 33.9286632], [-117.4264315, 33.9288664], [-117.4266531, 33.9291445], [-117.4266968, 33.9291227], [-117.426962, 33.9294275], [-117.4269329, 33.9295726], [-117.4264374, 33.9298556], [-117.4264024, 33.9298072], [-117.42621, 33.9299136], [-117.4264432, 33.9301942], [-117.4266326, 33.9300926], [-117.4266181, 33.9300636], [-117.4272069, 33.9297346], [-117.4271573, 33.9296766], [-117.4273993, 33.9295508], [-117.4272331, 33.9293598], [-117.427306, 33.9293162], [-117.4270349, 33.9289438], [-117.426793, 33.9286632]]]}, "properties": {"osm_id": 234178046, "name": null, "building": "yes", "amenity": null, "render_height": 8.0}}, {"type": "Feature", "geometry": {"type": "Polygon", "coordinates": [[[-117.4261284, 33.9303006], [-117.4259826, 33.9301264], [-117.4259506, 33.9301434], [-117.4260001, 33.9302062], [-117.4256474, 33.9304021], [-117.4256037, 33.9304142], [-117.4257145, 33.9305497], [-117.4255891, 33.9306126], [-117.4252568, 33.9302159], [-117.4252993, 33.9301913], [-117.4253391, 33.9301683], [-117.4253822, 33.9301434], [-117.4254988, 33.9302861], [-117.4259243, 33.9300611], [-117.4258077, 33.929916], [-117.425799, 33.9298411], [-117.4258573, 33.9298048], [-117.425834, 33.9297854], [-117.425869, 33.9297612], [-117.4262595, 33.9302353], [-117.4261284, 33.9303006]]]}, "properties": {"osm_id": 234178047, "name": "James Building (North) 2-Story", "building": "university", "amenity": null, "render_height": 8.0}}, {"type": "Feature", "geometry": {"type": "Polygon", "coordinates": [[[-117.4257873, 33.9297274], [-117.4257028, 33.9296306], [-117.425079, 33.9299983], [-117.4252248, 33.9301748], [-117.4252627, 33.9301506], [-117.4252993, 33.9301913], [-117.4253391, 33.9301683], [-117.4253064, 33.9301289], [-117.4253326, 33.9300974], [-117.4252656, 33.9300128], [-117.4257873, 33.9297274]]]}, "properties": {"osm_id": 234178048, "name": null, "building": "yes", "amenity": null, "render_height": 8.0}}, {"type": "Feature", "geometry": {"type": "Polygon", "coordinates": [[[-117.4267743, 33.9263499], [-117.4264214, 33.9265497], [-117.4261041, 33.9261637], [-117.426457, 33.925964], [-117.4267743, 33.9263499]]]}, "properties": {"osm_id": 234178049, "name": "Van Dyne Gym", "building": "yes", "amenity": null, "render_height": 8.0}}, {"type": "Feature", "geometry": {"type": "Polygon", "coordinates": [[[-117.4244936, 33.9269424], [-117.4237663, 33.9273551], [-117.4236514, 33.9272156], [-117.4243787, 33.926803], [-117.4244936, 33.9269424]]]}, "properties": {"osm_id": 234178050, "name": "Lancer Arms North Offices", "building": "yes", "amenity": null, "render_height": 8.0}}, {"type": "Feature", "geometry": {"type": "Polygon", "coordinates": [[[-117.424283, 33.9266788], [-117.4235548, 33.9270916], [-117.4234403, 33.9269525], [-117.4241685, 33.9265397], [-117.424283, 33.9266788]]]}, "properties": {"osm_id": 234178051, "name": "Lancer Arms Apartments", "building": "yes", "amenity": null, "render_height": 8.0}}, {"type": "Feature", "geometry": {"type": "Polygon", "coordinates": [[[-117.4240139, 33.9263226], [-117.423852, 33.9264217], [-117.4235443, 33.9260756], [-117.4237062, 33.9259765], [-117.4240139, 33.9263226]]]}, "properties": {"osm_id": 234178052, "name": "Lancer Arms Apartments", "building": "yes", "amenity": null, "render_height": 8.0}}, {"type": "Feature", "geometry": {"type": "Polygon", "coordinates": [[[-117.4234688, 33.9266613], [-117.4233067, 33.9267604], [-117.4229972, 33.9264118], [-117.4231593, 33.9263127], [-117.4234688, 33.9266613]]]}, "properties": {"osm_id": 234178053, "name": "Lancer Arms Apartments", "building": "yes", "amenity": null, "render_height": 8.0}}, {"type": "Feature", "geometry": {"type": "Polygon", "coordinates": [[[-117.4239685, 33.9279034], [-117.4241116, 33.9280764], [-117.424091, 33.9280881], [-117.4241925, 33.9282107], [-117.4242121, 33.9281995], [-117.4243322, 33.9283446], [-117.4245146, 33.9282408], [-117.4243896, 33.9280897], [-117.4244123, 33.9280768], [-117.4242747, 33.9279105], [-117.4242507, 33.9279242], [-117.4241486, 33.9278007], [-117.4239685, 33.9279034]]]}, "properties": {"osm_id": 234178054, "name": "Mission Hall", "building": "yes", "amenity": null, "render_height": 8.0}}, {"type": "Feature", "geometry": {"type": "Polygon", "coordinates": [[[-117.4240939, 33.9282472], [-117.423546, 33.9285615], [-117.4234501, 33.9284465], [-117.423998, 33.9281322], [-117.4240939, 33.9282472]]]}, "properties": {"osm_id": 234178055, "name": "Facilities & Planning Services", "building": "yes", "amenity": null, "render_height": 8.0}}, {"type": "Feature", "geometry": {"type": "Polygon", "coordinates": [[[-117.4256432, 33.9261485], [-117.4255893, 33.9261796], [-117.4255279, 33.9261038], [-117.4255743, 33.9260777], [-117.4256432, 33.9261485]]]}, "properties": {"osm_id": 234178061, "name": null, "building": "yes", "amenity": null, "render_height": 8.0}}, {"type": "Feature", "geometry": {"type": "Polygon", "coordinates": [[[-117.4269469, 33.9261411], [-117.4268135, 33.926212], [-117.4267476, 33.9261361], [-117.4268824, 33.9260628], [-117.4269469, 33.9261411]]]}, "properties": {"osm_id": 234178062, "name": null, "building": "yes", "amenity": null, "render_height": 8.0}}, {"type": "Feature", "geometry": {"type": "Polygon", "coordinates": [[[-117.4258028, 33.9290069], [-117.425706, 33.929061], [-117.4255942, 33.9289231], [-117.425691, 33.9288691], [-117.4258028, 33.9290069]]]}, "properties": {"osm_id": 234178063, "name": "Multi-Purpose Class Room", "building": "yes", "amenity": null, "render_height": 8.0}}, {"type": "Feature", "geometry": {"type": "Polygon", "coordinates": [[[-117.4241489, 33.9305759], [-117.4238459, 33.9301961], [-117.4240009, 33.9301218], [-117.4242074, 33.930376], [-117.4243589, 33.9302875], [-117.4241902, 33.9300904], [-117.4243348, 33.9300133], [-117.4245861, 33.9303389], [-117.4241489, 33.9305759]]]}, "properties": {"osm_id": 238218610, "name": null, "building": "yes", "amenity": null, "render_height": 8.0}}, {"type": "Feature", "geometry": {"type": "Polygon", "coordinates": [[[-117.4243898, 33.9298362], [-117.4239286, 33.9300875], [-117.4238287, 33.929979], [-117.4241592, 33.9297876], [-117.4240559, 33.9296648], [-117.4238115, 33.9297905], [-117.4237186, 33.9296848], [-117.4240938, 33.929462], [-117.4243898, 33.9298362]]]}, "properties": {"osm_id": 238218611, "name": null, "building": "yes", "amenity": null, "render_height": 8.0}}, {"type": "Feature", "geometry": {"type": "Polygon", "coordinates": [[[-117.4238046, 33.9299419], [-117.4234501, 33.9301418], [-117.4231403, 33.9297876], [-117.4235568, 33.9295563], [-117.4236497, 33.9296619], [-117.423364, 33.9298219], [-117.4234742, 33.9299504], [-117.4237014, 33.9298219], [-117.4238046, 33.9299419]]]}, "properties": {"osm_id": 238218613, "name": null, "building": "yes", "amenity": null, "render_height": 8.0}}, {"type": "Feature", "geometry": {"type": "Polygon", "coordinates": [[[-117.4233543, 33.9302314], [-117.4232196, 33.9303086], [-117.4230507, 33.9300989], [-117.4228893, 33.9301874], [-117.4230439, 33.9303817], [-117.4229126, 33.930456], [-117.4226445, 33.9301332], [-117.4230921, 33.9298933], [-117.4233543, 33.9302314]]]}, "properties": {"osm_id": 238218615, "name": null, "building": "yes", "amenity": null, "render_height": 8.0}}, {"type": "Feature", "geometry": {"type": "Polygon", "coordinates": [[[-117.4233392, 33.9307147], [-117.4229012, 33.9309632], [-117.4226602, 33.9306547], [-117.4228052, 33.9305776], [-117.4229602, 33.9307661], [-117.4231012, 33.930689], [-117.4230082, 33.9305633], [-117.4231562, 33.9304862], [-117.4233392, 33.9307147]]]}, "properties": {"osm_id": 238218618, "name": null, "building": "yes", "amenity": null, "render_height": 8.0}}, {"type": "Feature", "geometry": {"type": "Polygon", "coordinates": [[[-117.4241971, 33.9306959], [-117.4240284, 33.9307844], [-117.4243279, 33.9311472], [-117.4244966, 33.9310558], [-117.4241971, 33.9306959]]]}, "properties": {"osm_id": 238218622, "name": null, "building": "yes", "amenity": null, "render_height": 8.0}}, {"type": "Feature", "geometry": {"type": "Polygon", "coordinates": [[[-117.4242384, 33.9312529], [-117.4241248, 33.93111], [-117.423691, 33.9313557], [-117.4238012, 33.9315013], [-117.4242384, 33.9312529]]]}, "properties": {"osm_id": 238218625, "name": "Tower Hall", "building": "residential", "amenity": null, "render_height": 8.0}}, {"type": "Feature", "geometry": {"type": "Polygon", "coordinates": [[[-117.4237083, 33.9315613], [-117.4235499, 33.9316442], [-117.4233537, 33.93141], [-117.4235189, 33.9313243], [-117.4237083, 33.9315613]]]}, "properties": {"osm_id": 238218626, "name": null, "building": "yes", "amenity": null, "render_height": 8.0}}, {"type": "Feature", "geometry": {"type": "Polygon", "coordinates": [[[-117.4221373, 33.9283429], [-117.4218291, 33.9279791], [-117.4218507, 33.9279586], [-117.4218692, 33.9279235], [-117.4218702, 33.9278869], [-117.4221258, 33.927732], [-117.4221649, 33.9277082], [-117.4222433, 33.9276624], [-117.4223485, 33.9276104], [-117.4224157, 33.9275729], [-117.4224808, 33.9275382], [-117.4229112, 33.9280535], [-117.4228607, 33.9280826], [-117.422847, 33.9280662], [-117.422726, 33.9281358], [-117.4227372, 33.9281492], [-117.4226902, 33.9281762], [-117.4226754, 33.9281586], [-117.422276, 33.9283689], [-117.4222405, 33.9283343], [-117.4222003, 33.9283241], [-117.4221663, 33.9283292], [-117.4221373, 33.9283429]]]}, "properties": {"osm_id": 346122018, "name": "Recreation Center", "building": "yes", "amenity": null, "render_height": 8.0}}, {"type": "Feature", "geometry": {"type": "Polygon", "coordinates": [[[-117.4235388, 33.92736], [-117.4233989, 33.9274383], [-117.4234249, 33.9274703], [-117.4233248, 33.9275263], [-117.4233096, 33.9275076], [-117.4228389, 33.9277711], [-117.4221705, 33.9269492], [-117.4222685, 33.9268943], [-117.4221781, 33.9267831], [-117.422279, 33.9267266], [-117.4224091, 33.9268864], [-117.4229206, 33.9266], [-117.4235388, 33.92736]]]}, "properties": {"osm_id": 609631909, "name": "Events Center", "building": "yes", "amenity": null, "render_height": 8.0}}, {"type": "Feature", "geometry": {"type": "Polygon", "coordinates": [[[-117.4208079, 33.9279497], [-117.4207892, 33.927985], [-117.4207863, 33.9279907], [-117.4207271, 33.9279922], [-117.4207008, 33.9280404], [-117.4206446, 33.9280433], [-117.420619, 33.9280866], [-117.420597, 33.9280877], [-117.4205606, 33.9280895], [-117.4205283, 33.9280492], [-117.420545, 33.9280189], [-117.4205539, 33.9280047], [-117.4206123, 33.9280022], [-117.420624, 33.927982], [-117.4206371, 33.92796], [-117.4206764, 33.9279582], [-117.4206937, 33.9279574], [-117.4207172, 33.9279141], [-117.4207348, 33.9279131], [-117.4207756, 33.9279108], [-117.4208079, 33.9279497]]]}, "properties": {"osm_id": 609836055, "name": "Shell", "building": "roof", "amenity": "fuel", "render_height": 8.0}}, {"type": "Feature", "geometry": {"type": "Polygon", "coordinates": [[[-117.4206113, 33.9278804], [-117.4205625, 33.9279085], [-117.420624, 33.927982], [-117.4206371, 33.92796], [-117.4206764, 33.9279582], [-117.4206113, 33.9278804]]]}, "properties": {"osm_id": 609836056, "name": "Food Mart", "building": "yes", "amenity": null, "render_height": 8.0}}, {"type": "Feature", "geometry": {"type": "Polygon", "coordinates": [[[-117.4300146, 33.9257755], [-117.429904, 33.9258379], [-117.429844, 33.9257648], [-117.429766, 33.9258088], [-117.429651, 33.9256686], [-117.4296621, 33.9256624], [-117.4296259, 33.9256182], [-117.4298777, 33.9254761], [-117.430034, 33.9256667], [-117.4299598, 33.9257086], [-117.4300146, 33.9257755]]]}, "properties": {"osm_id": 619322267, "name": "Wellness Center", "building": "yes", "amenity": null, "render_height": 8.0}}, {"type": "Feature", "geometry": {"type": "Polygon", "coordinates": [[[-117.4301308, 33.9282135], [-117.430142, 33.9282071], [-117.4301277, 33.9281898], [-117.4301043, 33.9282031], [-117.4300634, 33.9281534], [-117.4300853, 33.928141], [-117.4300581, 33.9281081], [-117.4301244, 33.9280705], [-117.4301514, 33.9281033], [-117.4301767, 33.9280889], [-117.4302175, 33.9281385], [-117.4302109, 33.9281423], [-117.4302501, 33.9281899], [-117.4301555, 33.9282435], [-117.4301308, 33.9282135]]]}, "properties": {"osm_id": 619322270, "name": "Hawthorne House", "building": "house", "amenity": null, "render_height": 8.0}}, {"type": "Feature", "geometry": {"type": "Polygon", "coordinates": [[[-117.425747, 33.9284227], [-117.4256293, 33.9282728], [-117.425603, 33.9282871], [-117.42546, 33.9281051], [-117.4254823, 33.928093], [-117.4253523, 33.9279274], [-117.4248774, 33.9281843], [-117.4249962, 33.9283354], [-117.4250967, 33.9282811], [-117.4252549, 33.9284824], [-117.4251653, 33.9285309], [-117.4252791, 33.9286758], [-117.425747, 33.9284227]]]}, "properties": {"osm_id": 619322274, "name": "College of Engineering", "building": "yes", "amenity": null, "render_height": 8.0}}, {"type": "Feature", "geometry": {"type": "Polygon", "coordinates": [[[-117.4264011, 33.9288254], [-117.4261958, 33.9285719], [-117.4261657, 33.9285887], [-117.4261777, 33.9286034], [-117.4261077, 33.9286424], [-117.4260169, 33.9285303], [-117.4260274, 33.9285245], [-117.4259771, 33.9284623], [-117.4259653, 33.9284689], [-117.425855, 33.9283326], [-117.4259077, 33.9283033], [-117.4258972, 33.9282903], [-117.4263228, 33.9280531], [-117.4263423, 33.9280773], [-117.426355, 33.9280702], [-117.4264536, 33.9281921], [-117.4264322, 33.9282041], [-117.4264852, 33.9282695], [-117.4265047, 33.9282587], [-117.4265943, 33.9283693], [-117.4263061, 33.92853], [-117.4265005, 33.92877], [-117.4264011, 33.9288254]]]}, "properties": {"osm_id": 619322276, "name": "Business Building", "building": "yes", "amenity": null, "render_height": 8.0}}, {"type": "Feature", "geometry": {"type": "Polygon", "coordinates": [[[-117.4274283, 33.9241165], [-117.4273308, 33.9239972], [-117.4274032, 33.9239561], [-117.4274508, 33.9240144], [-117.427531, 33.9239689], [-117.4275808, 33.9240299], [-117.4274283, 33.9241165]]]}, "properties": {"osm_id": 893815175, "name": null, "building": "house", "amenity": null, "render_height": 3.75}}, {"type": "Feature", "geometry": {"type": "Polygon", "coordinates": [[[-117.4272552, 33.9238281], [-117.4273476, 33.9237754], [-117.4273836, 33.9238191], [-117.4273894, 33.9238158], [-117.4273938, 33.9238211], [-117.4274072, 33.9238135], [-117.4274578, 33.9238751], [-117.4273274, 33.9239496], [-117.4272903, 33.9239044], [-117.4273091, 33.9238936], [-117.4272552, 33.9238281]]]}, "properties": {"osm_id": 893815176, "name": null, "building": "house", "amenity": null, "render_height": 4.05}}, {"type": "Feature", "geometry": {"type": "Polygon", "coordinates": [[[-117.427162, 33.9238616], [-117.427241, 33.923818], [-117.4272844, 33.9238726], [-117.4272054, 33.9239163], [-117.427162, 33.9238616]]]}, "properties": {"osm_id": 893815177, "name": null, "building": "garage", "amenity": null, "render_height": 3.75}}, {"type": "Feature", "geometry": {"type": "Polygon", "coordinates": [[[-117.4270463, 33.9239148], [-117.4271219, 33.9238717], [-117.4271727, 33.9239336], [-117.427097, 33.9239767], [-117.4270463, 33.9239148]]]}, "properties": {"osm_id": 893815178, "name": null, "building": "garage", "amenity": null, "render_height": 3.72}}, {"type": "Feature", "geometry": {"type": "Polygon", "coordinates": [[[-117.4268885, 33.9239534], [-117.4269791, 33.9239016], [-117.426999, 33.9239258], [-117.427034, 33.9239057], [-117.4270697, 33.923949], [-117.4270575, 33.923956], [-117.4270964, 33.9240033], [-117.426964, 33.9240791], [-117.426914, 33.9240185], [-117.4269252, 33.9240121], [-117.4269193, 33.9240048], [-117.4269271, 33.9240003], [-117.4268885, 33.9239534]]]}, "properties": {"osm_id": 893815179, "name": null, "building": "house", "amenity": null, "render_height": 4.05}}, {"type": "Feature", "geometry": {"type": "Polygon", "coordinates": [[[-117.4271955, 33.9241681], [-117.4271605, 33.9241242], [-117.4271507, 33.9241296], [-117.4271414, 33.9241179], [-117.4270731, 33.9241558], [-117.4270235, 33.9240936], [-117.4271191, 33.9240406], [-117.427122, 33.9240442], [-117.4271771, 33.9240137], [-117.4272284, 33.9240781], [-117.4272598, 33.9240606], [-117.4273168, 33.9241321], [-117.4272838, 33.9241504], [-117.4272665, 33.9241287], [-117.4271955, 33.9241681]]]}, "properties": {"osm_id": 893815180, "name": null, "building": "house", "amenity": null, "render_height": 3.78}}, {"type": "Feature", "geometry": {"type": "Polygon", "coordinates": [[[-117.427185, 33.9243229], [-117.4271876, 33.9243125], [-117.4271199, 33.9243003], [-117.4271389, 33.9242274], [-117.4273488, 33.9242653], [-117.4273344, 33.9243205], [-117.4273064, 33.9243155], [-117.4272837, 33.9244031], [-117.4271912, 33.9243864], [-117.4272067, 33.9243268], [-117.427185, 33.9243229]]]}, "properties": {"osm_id": 893815181, "name": null, "building": "house", "amenity": null, "render_height": 3.96}}, {"type": "Feature", "geometry": {"type": "Polygon", "coordinates": [[[-117.4270497, 33.9245761], [-117.4269533, 33.9244575], [-117.4270255, 33.9244167], [-117.4270645, 33.9244646], [-117.4270753, 33.9244585], [-117.4270825, 33.9244674], [-117.4271527, 33.9244276], [-117.427203, 33.9244894], [-117.4270497, 33.9245761]]]}, "properties": {"osm_id": 893815182, "name": null, "building": "house", "amenity": null, "render_height": 3.81}}, {"type": "Feature", "geometry": {"type": "Polygon", "coordinates": [[[-117.4266722, 33.9245429], [-117.426714, 33.9244728], [-117.4267797, 33.9245], [-117.4267891, 33.9244842], [-117.4267961, 33.9244871], [-117.4268257, 33.9244375], [-117.4269047, 33.9244701], [-117.4268687, 33.9245304], [-117.4268656, 33.9245291], [-117.4268269, 33.924594], [-117.4268295, 33.924595], [-117.4268124, 33.9246236], [-117.4267539, 33.9245993], [-117.4267647, 33.9245812], [-117.4266722, 33.9245429]]]}, "properties": {"osm_id": 893815183, "name": null, "building": "house", "amenity": null, "render_height": 4.08}}, {"type": "Feature", "geometry": {"type": "Polygon", "coordinates": [[[-117.4266282, 33.9244609], [-117.4266065, 33.9244345], [-117.4266026, 33.9244367], [-117.4265486, 33.9243709], [-117.4265161, 33.9243894], [-117.4264804, 33.9243457], [-117.4265986, 33.9242784], [-117.4265894, 33.9242671], [-117.4266643, 33.9242244], [-117.4266825, 33.9242465], [-117.4266798, 33.9242481], [-117.4266941, 33.9242657], [-117.4266968, 33.9242642], [-117.4267149, 33.9242863], [-117.4266494, 33.9243236], [-117.4266566, 33.9243324], [-117.4266354, 33.9243445], [-117.4266982, 33.9244211], [-117.4266282, 33.9244609]]]}, "properties": {"osm_id": 893815184, "name": null, "building": "house", "amenity": null, "render_height": 3.69}}, {"type": "Feature", "geometry": {"type": "Polygon", "coordinates": [[[-117.4265023, 33.9242224], [-117.4264436, 33.9241506], [-117.4265328, 33.9240999], [-117.4265775, 33.9241545], [-117.4265924, 33.9241461], [-117.4266409, 33.9242054], [-117.4265143, 33.9242773], [-117.4264799, 33.9242351], [-117.4265023, 33.9242224]]]}, "properties": {"osm_id": 893815185, "name": null, "building": "house", "amenity": null, "render_height": 4.05}}, {"type": "Feature", "geometry": {"type": "Polygon", "coordinates": [[[-117.4263972, 33.924552], [-117.426357, 33.9245025], [-117.4263413, 33.9245114], [-117.4263333, 33.9245015], [-117.426269, 33.9245377], [-117.4262256, 33.9244842], [-117.4262867, 33.9244497], [-117.4262828, 33.924445], [-117.4263121, 33.9244285], [-117.4263144, 33.9244314], [-117.4263759, 33.9243967], [-117.4264691, 33.9245115], [-117.4263972, 33.924552]]]}, "properties": {"osm_id": 893815186, "name": null, "building": "house", "amenity": null, "render_height": 3.75}}, {"type": "Feature", "geometry": {"type": "Polygon", "coordinates": [[[-117.4261247, 33.9243842], [-117.4260883, 33.9243394], [-117.4261761, 33.9242899], [-117.4262342, 33.9243616], [-117.4262585, 33.9243479], [-117.4262926, 33.9243898], [-117.4261607, 33.9244641], [-117.426113, 33.9244052], [-117.426122, 33.9244001], [-117.4261141, 33.9243903], [-117.4261247, 33.9243842]]]}, "properties": {"osm_id": 893815187, "name": null, "building": "house", "amenity": null, "render_height": 4.15}}, {"type": "Feature", "geometry": {"type": "Polygon", "coordinates": [[[-117.426348, 33.9242389], [-117.426422, 33.9241975], [-117.4264718, 33.9242593], [-117.4263978, 33.9243007], [-117.426348, 33.9242389]]]}, "properties": {"osm_id": 893815188, "name": null, "building": "garage", "amenity": null, "render_height": 3.63}}, {"type": "Feature", "geometry": {"type": "Polygon", "coordinates": [[[-117.426241, 33.9242919], [-117.4263156, 33.9242505], [-117.4263647, 33.9243119], [-117.4262901, 33.9243533], [-117.426241, 33.9242919]]]}, "properties": {"osm_id": 893815189, "name": null, "building": "garage", "amenity": null, "render_height": 3.69}}, {"type": "Feature", "geometry": {"type": "Polygon", "coordinates": [[[-117.4264219, 33.924349], [-117.4264559, 33.9243305], [-117.4264743, 33.9243541], [-117.4264403, 33.9243725], [-117.4264219, 33.924349]]]}, "properties": {"osm_id": 893815190, "name": null, "building": "yes", "amenity": null, "render_height": 2.47}}, {"type": "Feature", "geometry": {"type": "Polygon", "coordinates": [[[-117.4263336, 33.9247863], [-117.4263347, 33.9247672], [-117.4263256, 33.9247669], [-117.4263277, 33.9247312], [-117.4263367, 33.9247315], [-117.4263378, 33.9247107], [-117.4264211, 33.924714], [-117.4264223, 33.9246936], [-117.4264433, 33.9246944], [-117.4264462, 33.9246443], [-117.426536, 33.9246479], [-117.4265314, 33.9247269], [-117.4265709, 33.9247285], [-117.4265678, 33.9247815], [-117.4264243, 33.9247757], [-117.4264235, 33.9247899], [-117.4263336, 33.9247863]]]}, "properties": {"osm_id": 893815191, "name": null, "building": "house", "amenity": null, "render_height": 3.72}}, {"type": "Feature", "geometry": {"type": "Polygon", "coordinates": [[[-117.4262395, 33.9248368], [-117.4263135, 33.9247963], [-117.4263708, 33.9248691], [-117.4263662, 33.9248717], [-117.4264069, 33.9249235], [-117.4262693, 33.9249987], [-117.4262213, 33.9249377], [-117.4262741, 33.9249088], [-117.4262683, 33.9249014], [-117.4262837, 33.924893], [-117.4262395, 33.9248368]]]}, "properties": {"osm_id": 893815192, "name": null, "building": "house", "amenity": null, "render_height": 3.81}}, {"type": "Feature", "geometry": {"type": "Polygon", "coordinates": [[[-117.4259087, 33.9249595], [-117.4259439, 33.9248928], [-117.4260115, 33.9249176], [-117.4260206, 33.9249002], [-117.4260329, 33.9249047], [-117.426061, 33.9248514], [-117.42614, 33.9248803], [-117.4260545, 33.9250424], [-117.4260011, 33.9250228], [-117.4260142, 33.9249981], [-117.4259087, 33.9249595]]]}, "properties": {"osm_id": 893815193, "name": null, "building": "house", "amenity": null, "render_height": 3.87}}, {"type": "Feature", "geometry": {"type": "Polygon", "coordinates": [[[-117.4258182, 33.9248503], [-117.4257321, 33.9247436], [-117.425823, 33.9246927], [-117.4258116, 33.9246784], [-117.4258824, 33.9246387], [-117.425932, 33.9247002], [-117.4258687, 33.9247356], [-117.4258754, 33.924744], [-117.4258589, 33.9247533], [-117.4258661, 33.9247623], [-117.4258628, 33.9247642], [-117.4258955, 33.9248048], [-117.4258762, 33.9248155], [-117.4258803, 33.9248206], [-117.4258437, 33.9248411], [-117.4258408, 33.9248376], [-117.4258182, 33.9248503]]]}, "properties": {"osm_id": 893815194, "name": null, "building": "house", "amenity": null, "render_height": 3.99}}, {"type": "Feature", "geometry": {"type": "Polygon", "coordinates": [[[-117.4257229, 33.9246345], [-117.4256674, 33.9245661], [-117.4257567, 33.9245157], [-117.4257902, 33.9245569], [-117.425793, 33.9245554], [-117.4258042, 33.9245693], [-117.4258227, 33.9245588], [-117.4258627, 33.924608], [-117.4258603, 33.9246094], [-117.4258629, 33.9246127], [-117.4257697, 33.9246652], [-117.425772, 33.9246682], [-117.4257355, 33.9246888], [-117.4257013, 33.9246467], [-117.4257229, 33.9246345]]]}, "properties": {"osm_id": 893815195, "name": null, "building": "house", "amenity": null, "render_height": 4.18}}, {"type": "Feature", "geometry": {"type": "Polygon", "coordinates": [[[-117.4255844, 33.924652], [-117.4256496, 33.924615], [-117.4257, 33.9246766], [-117.4256347, 33.9247136], [-117.4255844, 33.924652]]]}, "properties": {"osm_id": 893815196, "name": null, "building": "yes", "amenity": null, "render_height": 3.54}}, {"type": "Feature", "geometry": {"type": "Polygon", "coordinates": [[[-117.4250589, 33.9287069], [-117.4249777, 33.9287545], [-117.424847, 33.9285958], [-117.4248909, 33.9285697], [-117.4249029, 33.9285819], [-117.4249376, 33.9285627], [-117.4250589, 33.9287069]]]}, "properties": {"osm_id": 954127145, "name": "The Cottages", "building": "residential", "amenity": null, "render_height": 8.0}}, {"type": "Feature", "geometry": {"type": "Polygon", "coordinates": [[[-117.4249759, 33.9287898], [-117.4248577, 33.9286479], [-117.4248352, 33.9286606], [-117.4248247, 33.9286479], [-117.4247686, 33.9286829], [-117.4248989, 33.9288407], [-117.424939, 33.9288157], [-117.4249353, 33.9288113], [-117.4249759, 33.9287898]]]}, "properties": {"osm_id": 954127146, "name": "The Cottages", "building": "residential", "amenity": null, "render_height": 8.0}}, {"type": "Feature", "geometry": {"type": "Polygon", "coordinates": [[[-117.4248795, 33.9288569], [-117.4247521, 33.9286989], [-117.424707, 33.9287234], [-117.4247155, 33.928736], [-117.42468, 33.928757], [-117.4247964, 33.9288999], [-117.4248362, 33.9288777], [-117.4248389, 33.9288818], [-117.4248795, 33.9288569]]]}, "properties": {"osm_id": 954127147, "name": "The Cottages", "building": "residential", "amenity": null, "render_height": 8.0}}, {"type": "Feature", "geometry": {"type": "Polygon", "coordinates": [[[-117.4247759, 33.9289112], [-117.4246584, 33.9287693], [-117.424623, 33.9287867], [-117.424614, 33.9287759], [-117.4245687, 33.9288034], [-117.4246979, 33.9289605], [-117.424738, 33.928938], [-117.4247342, 33.9289323], [-117.4247759, 33.9289112]]]}, "properties": {"osm_id": 954127148, "name": "The Cottages", "building": "residential", "amenity": null, "render_height": 8.0}}, {"type": "Feature", "geometry": {"type": "Polygon", "coordinates": [[[-117.424669, 33.9289666], [-117.424629, 33.9289884], [-117.4246255, 33.928984], [-117.424584, 33.9290075], [-117.4244597, 33.9288511], [-117.4245454, 33.9288072], [-117.424669, 33.9289666]]]}, "properties": {"osm_id": 954127149, "name": "The Cottages", "building": "residential", "amenity": null, "render_height": 8.0}}, {"type": "Feature", "geometry": {"type": "Polygon", "coordinates": [[[-117.4244424, 33.9288858], [-117.4244034, 33.9289027], [-117.4243949, 33.928892], [-117.4243509, 33.9289165], [-117.4244801, 33.9290759], [-117.4245625, 33.9290295], [-117.4244424, 33.9288858]]]}, "properties": {"osm_id": 954127150, "name": "The Cottages", "building": "residential", "amenity": null, "render_height": 8.0}}, {"type": "Feature", "geometry": {"type": "Polygon", "coordinates": [[[-117.424464, 33.9290938], [-117.4244208, 33.9291164], [-117.4244153, 33.9291137], [-117.4243765, 33.9291357], [-117.4242603, 33.928992], [-117.4242995, 33.9289709], [-117.4242901, 33.9289603], [-117.4243351, 33.928938], [-117.424464, 33.9290938]]]}, "properties": {"osm_id": 954127151, "name": "The Cottages", "building": "residential", "amenity": null, "render_height": 8.0}}, {"type": "Feature", "geometry": {"type": "Polygon", "coordinates": [[[-117.4243533, 33.929137], [-117.4242382, 33.9289963], [-117.4242019, 33.9290137], [-117.4241926, 33.9290037], [-117.424143, 33.9290306], [-117.4242735, 33.9291886], [-117.4243153, 33.9291639], [-117.4243119, 33.9291596], [-117.4243533, 33.929137]]]}, "properties": {"osm_id": 954127152, "name": "The Cottages", "building": "residential", "amenity": null, "render_height": 8.0}}, {"type": "Feature", "geometry": {"type": "Polygon", "coordinates": [[[-117.4242376, 33.9291732], [-117.4241106, 33.9290175], [-117.4240655, 33.9290394], [-117.4240746, 33.9290515], [-117.4240368, 33.9290729], [-117.4241512, 33.9292166], [-117.4241908, 33.9291932], [-117.4241948, 33.9291979], [-117.4242376, 33.9291732]]]}, "properties": {"osm_id": 954127153, "name": "The Cottages", "building": "residential", "amenity": null, "render_height": 8.0}}, {"type": "Feature", "geometry": {"type": "Polygon", "coordinates": [[[-117.4240702, 33.9289687], [-117.4239381, 33.9288102], [-117.4238588, 33.9288536], [-117.4239755, 33.9290015], [-117.4240141, 33.9289814], [-117.4240267, 33.9289929], [-117.4240702, 33.9289687]]]}, "properties": {"osm_id": 954127154, "name": "The Cottages", "building": "residential", "amenity": null, "render_height": 8.0}}, {"type": "Feature", "geometry": {"type": "Polygon", "coordinates": [[[-117.424139, 33.9288737], [-117.424025, 33.9287337], [-117.4239821, 33.9287549], [-117.4239778, 33.92875], [-117.4239358, 33.9287744], [-117.424068, 33.9289321], [-117.424123, 33.928902], [-117.4241126, 33.9288874], [-117.424139, 33.9288737]]]}, "properties": {"osm_id": 954127155, "name": "The Cottages", "building": "residential", "amenity": null, "render_height": 8.0}}, {"type": "Feature", "geometry": {"type": "Polygon", "coordinates": [[[-117.4242441, 33.928823], [-117.4241142, 33.9286623], [-117.42403, 33.9287107], [-117.4241478, 33.9288554], [-117.4241855, 33.9288336], [-117.4241975, 33.928849], [-117.4242441, 33.928823]]]}, "properties": {"osm_id": 954127156, "name": "The Cottages", "building": "residential", "amenity": null, "render_height": 8.0}}, {"type": "Feature", "geometry": {"type": "Polygon", "coordinates": [[[-117.4243396, 33.9287557], [-117.4243139, 33.9287711], [-117.4243237, 33.9287853], [-117.4242681, 33.9288178], [-117.4241345, 33.928653], [-117.4242173, 33.9286075], [-117.4243396, 33.9287557]]]}, "properties": {"osm_id": 954127157, "name": "The Cottages", "building": "residential", "amenity": null, "render_height": 8.0}}, {"type": "Feature", "geometry": {"type": "Polygon", "coordinates": [[[-117.4244171, 33.928732], [-117.4244622, 33.9287064], [-117.4243247, 33.9285432], [-117.4242463, 33.9285933], [-117.4243683, 33.9287402], [-117.4244063, 33.9287179], [-117.4244171, 33.928732]]]}, "properties": {"osm_id": 954127158, "name": "The Cottages", "building": "residential", "amenity": null, "render_height": 8.0}}, {"type": "Feature", "geometry": {"type": "Polygon", "coordinates": [[[-117.4245466, 33.9286294], [-117.4244288, 33.9284855], [-117.4243472, 33.9285294], [-117.4244755, 33.9286894], [-117.4245321, 33.9286572], [-117.4245215, 33.9286442], [-117.4245466, 33.9286294]]]}, "properties": {"osm_id": 954127159, "name": "The Cottages", "building": "residential", "amenity": null, "render_height": 8.0}}, {"type": "Feature", "geometry": {"type": "Polygon", "coordinates": [[[-117.4246147, 33.9286098], [-117.4246038, 33.928598], [-117.4245674, 33.9286182], [-117.4244517, 33.9284763], [-117.4244913, 33.9284538], [-117.4244867, 33.9284482], [-117.4245299, 33.9284244], [-117.42466, 33.9285869], [-117.4246147, 33.9286098]]]}, "properties": {"osm_id": 954127160, "name": "The Cottages", "building": "residential", "amenity": null, "render_height": 8.0}}, {"type": "Feature", "geometry": {"type": "Polygon", "coordinates": [[[-117.4247553, 33.9285215], [-117.4247189, 33.9285411], [-117.424729, 33.9285546], [-117.4246843, 33.9285787], [-117.4245557, 33.9284197], [-117.4245958, 33.9283948], [-117.4246008, 33.9284012], [-117.4246388, 33.9283791], [-117.4247553, 33.9285215]]]}, "properties": {"osm_id": 954127161, "name": "The Cottages", "building": "residential", "amenity": null, "render_height": 8.0}}, {"type": "Feature", "geometry": {"type": "Polygon", "coordinates": [[[-117.4248743, 33.9284934], [-117.4248435, 33.9285103], [-117.4248526, 33.9285272], [-117.4248141, 33.9285465], [-117.4247066, 33.928413], [-117.4247774, 33.9283714], [-117.4248743, 33.9284934]]]}, "properties": {"osm_id": 954127162, "name": "The Cottages", "building": "residential", "amenity": null, "render_height": 8.0}}, {"type": "Feature", "geometry": {"type": "Polygon", "coordinates": [[[-117.4237969, 33.9287095], [-117.423669, 33.9285497], [-117.4235895, 33.9285955], [-117.4237064, 33.9287437], [-117.4237332, 33.9287294], [-117.4237409, 33.9287429], [-117.4237969, 33.9287095]]]}, "properties": {"osm_id": 954138788, "name": "The Cottages", "building": "residential", "amenity": null, "render_height": 8.0}}, {"type": "Feature", "geometry": {"type": "Polygon", "coordinates": [[[-117.4237694, 33.9284908], [-117.4237299, 33.928508], [-117.4237262, 33.9285036], [-117.4236832, 33.9285316], [-117.4238133, 33.9286912], [-117.4238535, 33.92867], [-117.4238501, 33.9286648], [-117.4238947, 33.9286448], [-117.4237694, 33.9284908]]]}, "properties": {"osm_id": 954138789, "name": "The Cottages", "building": "residential", "amenity": null, "render_height": 8.0}}, {"type": "Feature", "geometry": {"type": "Polygon", "coordinates": [[[-117.4238825, 33.9284195], [-117.4238396, 33.9284415], [-117.423843, 33.9284463], [-117.4238044, 33.9284689], [-117.423921, 33.9286128], [-117.4239615, 33.9285919], [-117.4239694, 33.9286008], [-117.4240121, 33.928578], [-117.4238825, 33.9284195]]]}, "properties": {"osm_id": 954138790, "name": "The Cottages", "building": "residential", "amenity": null, "render_height": 8.0}}, {"type": "Feature", "geometry": {"type": "Polygon", "coordinates": [[[-117.4241069, 33.9285153], [-117.4240715, 33.9285374], [-117.424081, 33.9285494], [-117.4240352, 33.9285749], [-117.4239065, 33.9284136], [-117.4239467, 33.9283902], [-117.4239498, 33.9283949], [-117.4239916, 33.9283724], [-117.4241069, 33.9285153]]]}, "properties": {"osm_id": 954138791, "name": "The Cottages", "building": "residential", "amenity": null, "render_height": 8.0}}, {"type": "Feature", "geometry": {"type": "Polygon", "coordinates": [[[-117.4251357, 33.9291748], [-117.4250271, 33.9290421], [-117.4246978, 33.9292259], [-117.424796, 33.9293472], [-117.4248032, 33.9293436], [-117.4248162, 33.9293599], [-117.4251357, 33.9291748]]]}, "properties": {"osm_id": 954138793, "name": "Ceramics", "building": "university", "amenity": null, "render_height": 8.0}}, {"type": "Feature", "geometry": {"type": "Polygon", "coordinates": [[[-117.4259795, 33.9316758], [-117.425872, 33.9317397], [-117.4256926, 33.9315209], [-117.4256759, 33.9315276], [-117.4254566, 33.9312624], [-117.4254726, 33.9312564], [-117.425397, 33.9311606], [-117.4253847, 33.9311691], [-117.425169, 33.9309063], [-117.4251828, 33.9308979], [-117.4250564, 33.9307346], [-117.4251617, 33.9306732], [-117.4259795, 33.9316758]]]}, "properties": {"osm_id": 954468680, "name": "University Place Apartments", "building": "apartments", "amenity": null, "render_height": 8.0}}, {"type": "Feature", "geometry": {"type": "Polygon", "coordinates": [[[-117.4250681, 33.9305586], [-117.424943, 33.9306321], [-117.4247346, 33.9303776], [-117.4248597, 33.9303086], [-117.4250681, 33.9305586]]]}, "properties": {"osm_id": 954468681, "name": "University Place Apartments", "building": "apartments", "amenity": null, "render_height": 8.0}}, {"type": "Feature", "geometry": {"type": "Polygon", "coordinates": [[[-117.4248664, 33.9306143], [-117.42476, 33.9306747], [-117.4245904, 33.930462], [-117.4246973, 33.9304016], [-117.4248664, 33.9306143]]]}, "properties": {"osm_id": 954468682, "name": "University Place Apartments", "building": "apartments", "amenity": null, "render_height": 8.0}}, {"type": "Feature", "geometry": {"type": "Polygon", "coordinates": [[[-117.4245737, 33.9305022], [-117.4243087, 33.9306524], [-117.4243609, 33.9307129], [-117.4243878, 33.930699], [-117.4243858, 33.9306942], [-117.4244654, 33.9306485], [-117.4244692, 33.930652], [-117.4244951, 33.9306357], [-117.4244927, 33.9306306], [-117.4245305, 33.9306107], [-117.4245348, 33.9306159], [-117.4245837, 33.9305876], [-117.4245799, 33.9305821], [-117.4246216, 33.9305598], [-117.4245737, 33.9305022]]]}, "properties": {"osm_id": 954468683, "name": "University Place Apartments", "building": "apartments", "amenity": null, "render_height": 8.0}}, {"type": "Feature", "geometry": {"type": "Polygon", "coordinates": [[[-117.4251654, 33.9320959], [-117.4250586, 33.9319677], [-117.424987, 33.9320111], [-117.4250016, 33.9320281], [-117.4249879, 33.9320359], [-117.424971, 33.9320155], [-117.4249329, 33.9320375], [-117.4249345, 33.93204], [-117.4248984, 33.9320601], [-117.4250044, 33.9321869], [-117.425038, 33.9321684], [-117.4250411, 33.9321703], [-117.4250789, 33.9321475], [-117.4250643, 33.9321303], [-117.4250782, 33.9321211], [-117.4250942, 33.9321384], [-117.4251335, 33.9321162], [-117.4251332, 33.9321141], [-117.4251654, 33.9320959]]]}, "properties": {"osm_id": 954468684, "name": "University Place Apartments", "building": "apartments", "amenity": null, "render_height": 8.0}}, {"type": "Feature", "geometry": {"type": "Polygon", "coordinates": [[[-117.4250129, 33.9319113], [-117.4249815, 33.9319287], [-117.4249821, 33.931931], [-117.4249419, 33.9319538], [-117.4249261, 33.9319352], [-117.4249117, 33.9319436], [-117.4249278, 33.9319615], [-117.4248886, 33.9319841], [-117.4248861, 33.9319818], [-117.4248536, 33.9320016], [-117.424748, 33.9318748], [-117.4247817, 33.9318556], [-117.4247805, 33.9318515], [-117.4248189, 33.9318294], [-117.4248358, 33.93185], [-117.424849, 33.9318422], [-117.4248362, 33.9318249], [-117.4249065, 33.9317852], [-117.4250129, 33.9319113]]]}, "properties": {"osm_id": 954468685, "name": "University Place Apartments", "building": "apartments", "amenity": null, "render_height": 8.0}}, {"type": "Feature", "geometry": {"type": "Polygon", "coordinates": [[[-117.4248256, 33.9316834], [-117.4246693, 33.9317729], [-117.4245626, 33.9316432], [-117.4245935, 33.9316261], [-117.4246336, 33.9316039], [-117.4246503, 33.9316227], [-117.4246637, 33.9316157], [-117.4246485, 33.9315962], [-117.4247218, 33.9315561], [-117.4248256, 33.9316834]]]}, "properties": {"osm_id": 954468686, "name": "University Place Apartments", "building": "apartments", "amenity": null, "render_height": 8.0}}, {"type": "Feature", "geometry": {"type": "Polygon", "coordinates": [[[-117.4246178, 33.9313396], [-117.4244631, 33.9314256], [-117.4245105, 33.9314864], [-117.4245351, 33.9314746], [-117.4245422, 33.9314846], [-117.4245208, 33.9314979], [-117.4245708, 33.9315577], [-117.4247255, 33.9314727], [-117.424704, 33.9314445], [-117.4247085, 33.9314419], [-117.4246795, 33.9314085], [-117.424654, 33.9314231], [-117.4246442, 33.9314107], [-117.4246665, 33.9313959], [-117.4246392, 33.931364], [-117.4246178, 33.9313396]]]}, "properties": {"osm_id": 954468687, "name": "University Place Apartments", "building": "apartments", "amenity": null, "render_height": 8.0}}, {"type": "Feature", "geometry": {"type": "Polygon", "coordinates": [[[-117.4245119, 33.9315911], [-117.4243578, 33.9316754], [-117.4243126, 33.9316149], [-117.4243291, 33.9316039], [-117.4243219, 33.9315928], [-117.4243024, 33.9316047], [-117.4242551, 33.9315451], [-117.4244025, 33.9314568], [-117.4244518, 33.9315176], [-117.4244321, 33.9315298], [-117.4244424, 33.9315424], [-117.4244635, 33.9315299], [-117.4245119, 33.9315911]]]}, "properties": {"osm_id": 954468688, "name": "University Place Apartments", "building": "apartments", "amenity": null, "render_height": 8.0}}, {"type": "Feature", "geometry": {"type": "Polygon", "coordinates": [[[-117.4255573, 33.9318189], [-117.4254943, 33.9318554], [-117.4252334, 33.93154], [-117.4253019, 33.931504], [-117.4255573, 33.9318189]]]}, "properties": {"osm_id": 954468689, "name": "University Place Apartments", "building": "apartments", "amenity": null, "render_height": 8.0}}, {"type": "Feature", "geometry": {"type": "Polygon", "coordinates": [[[-117.4251941, 33.9313669], [-117.4251257, 33.9314062], [-117.4248648, 33.9310908], [-117.4249367, 33.9310526], [-117.4251941, 33.9313669]]]}, "properties": {"osm_id": 954468690, "name": "University Place Apartments", "building": "apartments", "amenity": null, "render_height": 8.0}}, {"type": "Feature", "geometry": {"type": "Polygon", "coordinates": [[[-117.4248547, 33.930948], [-117.4247835, 33.9309885], [-117.4245159, 33.9306754], [-117.4245952, 33.9306354], [-117.4248547, 33.930948]]]}, "properties": {"osm_id": 954468691, "name": "University Place Apartments", "building": "apartments", "amenity": null, "render_height": 8.0}}, {"type": "Feature", "geometry": {"type": "Polygon", "coordinates": [[[-117.4245094, 33.9307376], [-117.4245154, 33.9307344], [-117.4244971, 33.9307117], [-117.4244232, 33.9307567], [-117.4245153, 33.9308629], [-117.4245045, 33.9308708], [-117.424638, 33.9310378], [-117.4246495, 33.9310344], [-117.424661, 33.9310479], [-117.4246535, 33.9310535], [-117.4246705, 33.9310732], [-117.4246806, 33.931071], [-117.424741, 33.9311412], [-117.4247714, 33.9311721], [-117.4248419, 33.931135], [-117.4248107, 33.9311036], [-117.4247349, 33.931013], [-117.4247396, 33.9310046], [-117.4247206, 33.9309872], [-117.424705, 33.9309934], [-117.4246793, 33.9309647], [-117.4246854, 33.9309608], [-117.4246664, 33.9309366], [-117.4246594, 33.9309391], [-117.4246336, 33.9309074], [-117.424638, 33.9309054], [-117.424574, 33.9308349], [-117.4245889, 33.9308262], [-117.4245532, 33.9307875], [-117.4245094, 33.9307376]]]}, "properties": {"osm_id": 954468692, "name": "University Place Apartments", "building": "apartments", "amenity": null, "render_height": 8.0}}, {"type": "Feature", "geometry": {"type": "Polygon", "coordinates": [[[-117.4254844, 33.9319367], [-117.4254736, 33.931943], [-117.4254759, 33.9319475], [-117.4254593, 33.9319552], [-117.4254508, 33.9319552], [-117.4254589, 33.931966], [-117.4254146, 33.9319897], [-117.4253176, 33.9318673], [-117.4253279, 33.9318607], [-117.4252425, 33.9317542], [-117.4252327, 33.9317583], [-117.4250963, 33.9315943], [-117.4251044, 33.9315888], [-117.4249247, 33.931367], [-117.4249104, 33.9313421], [-117.4249792, 33.9313065], [-117.4251776, 33.9315483], [-117.425164, 33.9315569], [-117.4252968, 33.9317169], [-117.4253121, 33.9317127], [-117.4253299, 33.9317315], [-117.4253257, 33.9317357], [-117.4254031, 33.9318214], [-117.4253895, 33.931832], [-117.4254844, 33.9319367]]]}, "properties": {"osm_id": 954468693, "name": "University Place Apartments", "building": "apartments", "amenity": null, "render_height": 8.0}}, {"type": "Feature", "geometry": {"type": "Polygon", "coordinates": [[[-117.4250631, 33.931637], [-117.4249613, 33.9316961], [-117.424735, 33.9314287], [-117.4248404, 33.9313707], [-117.4250631, 33.931637]]]}, "properties": {"osm_id": 954468694, "name": "University Place Apartments", "building": "apartments", "amenity": null, "render_height": 8.0}}, {"type": "Feature", "geometry": {"type": "Polygon", "coordinates": [[[-117.4253482, 33.9320203], [-117.4252486, 33.9320793], [-117.4250819, 33.9318725], [-117.4251822, 33.9318202], [-117.4253482, 33.9320203]]]}, "properties": {"osm_id": 954468695, "name": "University Place Apartments", "building": "apartments", "amenity": null, "render_height": 8.0}}, {"type": "Feature", "geometry": {"type": "Polygon", "coordinates": [[[-117.4251868, 33.9317856], [-117.4250838, 33.9316585], [-117.4250032, 33.9316962], [-117.4250181, 33.9317187], [-117.4250093, 33.9317248], [-117.4249924, 33.9317029], [-117.424919, 33.9317441], [-117.4250258, 33.9318767], [-117.4250969, 33.9318337], [-117.4250867, 33.9318212], [-117.4250995, 33.9318143], [-117.4251146, 33.9318308], [-117.4251546, 33.931808], [-117.4251535, 33.931806], [-117.4251868, 33.9317856]]]}, "properties": {"osm_id": 954468696, "name": "University Place Apartments", "building": "residential", "amenity": null, "render_height": 8.0}}, {"type": "Feature", "geometry": {"type": "Polygon", "coordinates": [[[-117.4301867, 33.9288508], [-117.4304277, 33.9287124], [-117.4305237, 33.9288281], [-117.4302827, 33.9289665], [-117.4301867, 33.9288508]]]}, "properties": {"osm_id": 957964625, "name": null, "building": "residential", "amenity": null, "render_height": 7.53}}, {"type": "Feature", "geometry": {"type": "Polygon", "coordinates": [[[-117.4300296, 33.9289822], [-117.4301676, 33.9289044], [-117.4303416, 33.9291174], [-117.4302036, 33.9291951], [-117.4300296, 33.9289822]]]}, "properties": {"osm_id": 957964626, "name": null, "building": "residential", "amenity": null, "render_height": 7.35}}, {"type": "Feature", "geometry": {"type": "Polygon", "coordinates": [[[-117.4303468, 33.9290054], [-117.4305508, 33.9288883], [-117.4306458, 33.9290029], [-117.4304418, 33.92912], [-117.4303468, 33.9290054]]]}, "properties": {"osm_id": 957964627, "name": null, "building": "residential", "amenity": null, "render_height": 7.53}}, {"type": "Feature", "geometry": {"type": "Polygon", "coordinates": [[[-117.4295091, 33.9290868], [-117.4296481, 33.9290091], [-117.4298099, 33.9292044], [-117.4296709, 33.9292821], [-117.4295091, 33.9290868]]]}, "properties": {"osm_id": 957964628, "name": null, "building": "residential", "amenity": null, "render_height": 7.62}}, {"type": "Feature", "geometry": {"type": "Polygon", "coordinates": [[[-117.4292958, 33.929193], [-117.4294358, 33.9291146], [-117.4295698, 33.9292785], [-117.4294298, 33.9293569], [-117.4292958, 33.929193]]]}, "properties": {"osm_id": 957964629, "name": null, "building": "residential", "amenity": null, "render_height": 7.53}}, {"type": "Feature", "geometry": {"type": "Polygon", "coordinates": [[[-117.4294994, 33.9294073], [-117.4296384, 33.9293282], [-117.4297894, 33.9295111], [-117.4296514, 33.9295902], [-117.4294994, 33.9294073]]]}, "properties": {"osm_id": 957964630, "name": null, "building": "residential", "amenity": null, "render_height": 7.47}}, {"type": "Feature", "geometry": {"type": "Polygon", "coordinates": [[[-117.4295943, 33.9286815], [-117.4297333, 33.9286032], [-117.4298963, 33.9288042], [-117.4297583, 33.9288825], [-117.4295943, 33.9286815]]]}, "properties": {"osm_id": 957965882, "name": null, "building": "residential", "amenity": null, "render_height": 7.5}}, {"type": "Feature", "geometry": {"type": "Polygon", "coordinates": [[[-117.4287087, 33.9284941], [-117.4289497, 33.9283568], [-117.4290457, 33.9284721], [-117.4288047, 33.9286094], [-117.4287087, 33.9284941]]]}, "properties": {"osm_id": 957965883, "name": null, "building": "residential", "amenity": null, "render_height": 7.65}}, {"type": "Feature", "geometry": {"type": "Polygon", "coordinates": [[[-117.4284977, 33.9282275], [-117.4286367, 33.9281481], [-117.4287757, 33.928317], [-117.4286367, 33.9283964], [-117.4284977, 33.9282275]]]}, "properties": {"osm_id": 957965884, "name": null, "building": "residential", "amenity": null, "render_height": 7.56}}, {"type": "Feature", "geometry": {"type": "Polygon", "coordinates": [[[-117.4287007, 33.9281135], [-117.4288387, 33.9280346], [-117.4289787, 33.9282049], [-117.4288407, 33.9282838], [-117.4287007, 33.9281135]]]}, "properties": {"osm_id": 957965885, "name": null, "building": "residential", "amenity": null, "render_height": 7.65}}, {"type": "Feature", "geometry": {"type": "Polygon", "coordinates": [[[-117.4291359, 33.9281829], [-117.4292754, 33.928104], [-117.4294148, 33.9282737], [-117.4292753, 33.9283526], [-117.4291359, 33.9281829]]]}, "properties": {"osm_id": 957965886, "name": null, "building": "residential", "amenity": null, "render_height": 7.44}}, {"type": "Feature", "geometry": {"type": "Polygon", "coordinates": [[[-117.4289204, 33.9279434], [-117.4289754, 33.9279123], [-117.4291084, 33.9280758], [-117.4290534, 33.928107], [-117.4289204, 33.9279434]]]}, "properties": {"osm_id": 957965887, "name": null, "building": "residential", "amenity": null, "render_height": 2.23}}, {"type": "Feature", "geometry": {"type": "Polygon", "coordinates": [[[-117.4292962, 33.9280185], [-117.4294482, 33.927934], [-117.4296112, 33.9281357], [-117.4294582, 33.9282202], [-117.4292962, 33.9280185]]]}, "properties": {"osm_id": 957965888, "name": null, "building": "residential", "amenity": null, "render_height": 7.56}}, {"type": "Feature", "geometry": {"type": "Polygon", "coordinates": [[[-117.4297187, 33.9282221], [-117.4299217, 33.9281063], [-117.4300167, 33.9282217], [-117.4298137, 33.9283375], [-117.4297187, 33.9282221]]]}, "properties": {"osm_id": 957965889, "name": null, "building": "residential", "amenity": null, "render_height": 7.53}}, {"type": "Feature", "geometry": {"type": "Polygon", "coordinates": [[[-117.4294276, 33.9283834], [-117.4296706, 33.9282452], [-117.4297656, 33.9283611], [-117.4295226, 33.9284993], [-117.4294276, 33.9283834]]]}, "properties": {"osm_id": 957966480, "name": null, "building": "residential", "amenity": null, "render_height": 7.62}}, {"type": "Feature", "geometry": {"type": "Polygon", "coordinates": [[[-117.4293083, 33.9284123], [-117.4293623, 33.9283816], [-117.4295613, 33.9286278], [-117.4295063, 33.9286585], [-117.4293083, 33.9284123]]]}, "properties": {"osm_id": 957966481, "name": null, "building": "residential", "amenity": null, "render_height": 2.59}}, {"type": "Feature", "geometry": {"type": "Polygon", "coordinates": [[[-117.4296004, 33.9279939], [-117.4297384, 33.9279155], [-117.4298774, 33.9280853], [-117.4297384, 33.9281637], [-117.4296004, 33.9279939]]]}, "properties": {"osm_id": 957966482, "name": null, "building": "residential", "amenity": null, "render_height": 7.41}}, {"type": "Feature", "geometry": {"type": "Polygon", "coordinates": [[[-117.4294352, 33.9278715], [-117.4296392, 33.9277551], [-117.4297342, 33.9278703], [-117.4295302, 33.9279867], [-117.4294352, 33.9278715]]]}, "properties": {"osm_id": 957966483, "name": null, "building": "residential", "amenity": null, "render_height": 7.56}}, {"type": "Feature", "geometry": {"type": "Polygon", "coordinates": [[[-117.429273, 33.9275959], [-117.429413, 33.9275169], [-117.429577, 33.9277186], [-117.429437, 33.9277976], [-117.429273, 33.9275959]]]}, "properties": {"osm_id": 957966484, "name": null, "building": "residential", "amenity": null, "render_height": 7.53}}, {"type": "Feature", "geometry": {"type": "Polygon", "coordinates": [[[-117.4294222, 33.9274191], [-117.4295612, 33.927341], [-117.4297002, 33.927513], [-117.4295602, 33.9275911], [-117.4294222, 33.9274191]]]}, "properties": {"osm_id": 957966485, "name": null, "building": "residential", "amenity": null, "render_height": 7.5}}, {"type": "Feature", "geometry": {"type": "Polygon", "coordinates": [[[-117.4291078, 33.9272772], [-117.429354, 33.9271392], [-117.4294496, 33.9272567], [-117.4292035, 33.9273947], [-117.4291078, 33.9272772]]]}, "properties": {"osm_id": 957966781, "name": null, "building": "residential", "amenity": null, "render_height": 7.56}}, {"type": "Feature", "geometry": {"type": "Polygon", "coordinates": [[[-117.4288291, 33.9271361], [-117.4289694, 33.9270574], [-117.4291087, 33.9272283], [-117.4289685, 33.9273071], [-117.4288291, 33.9271361]]]}, "properties": {"osm_id": 957966782, "name": null, "building": "residential", "amenity": null, "render_height": 7.44}}, {"type": "Feature", "geometry": {"type": "Polygon", "coordinates": [[[-117.429035, 33.9270235], [-117.4291756, 33.9269455], [-117.4293132, 33.9271164], [-117.4291726, 33.9271944], [-117.429035, 33.9270235]]]}, "properties": {"osm_id": 957966783, "name": null, "building": "residential", "amenity": null, "render_height": 7.56}}, {"type": "Feature", "geometry": {"type": "Polygon", "coordinates": [[[-117.4284752, 33.9272602], [-117.4286142, 33.9271814], [-117.4287552, 33.9273541], [-117.4286162, 33.9274329], [-117.4284752, 33.9272602]]]}, "properties": {"osm_id": 957966784, "name": null, "building": "residential", "amenity": null, "render_height": 7.41}}, {"type": "Feature", "geometry": {"type": "Polygon", "coordinates": [[[-117.4281347, 33.927287], [-117.4283387, 33.9271717], [-117.4284337, 33.9272882], [-117.4282287, 33.9274036], [-117.4281347, 33.927287]]]}, "properties": {"osm_id": 957966785, "name": null, "building": "residential", "amenity": null, "render_height": 7.62}}, {"type": "Feature", "geometry": {"type": "Polygon", "coordinates": [[[-117.4282859, 33.9270309], [-117.4284249, 33.9269529], [-117.4285889, 33.9271555], [-117.4284499, 33.9272335], [-117.4282859, 33.9270309]]]}, "properties": {"osm_id": 957966786, "name": null, "building": "residential", "amenity": null, "render_height": 7.5}}, {"type": "Feature", "geometry": {"type": "Polygon", "coordinates": [[[-117.4287984, 33.9265212], [-117.4290034, 33.9264051], [-117.4290974, 33.926521], [-117.4288934, 33.9266371], [-117.4287984, 33.9265212]]]}, "properties": {"osm_id": 957966787, "name": null, "building": "residential", "amenity": null, "render_height": 7.47}}, {"type": "Feature", "geometry": {"type": "Polygon", "coordinates": [[[-117.4286068, 33.9266006], [-117.4287468, 33.9265218], [-117.4288848, 33.9266924], [-117.4287448, 33.9267712], [-117.4286068, 33.9266006]]]}, "properties": {"osm_id": 957966788, "name": null, "building": "residential", "amenity": null, "render_height": 7.44}}, {"type": "Feature", "geometry": {"type": "Polygon", "coordinates": [[[-117.4284632, 33.9264512], [-117.4287012, 33.9263122], [-117.4288012, 33.9264321], [-117.4285632, 33.9265694], [-117.4284632, 33.9264512]]]}, "properties": {"osm_id": 957967218, "name": null, "building": "residential", "amenity": null, "render_height": 7.53}}, {"type": "Feature", "geometry": {"type": "Polygon", "coordinates": [[[-117.4290242, 33.9263624], [-117.4291622, 33.926284], [-117.4293022, 33.926455], [-117.4291652, 33.9265334], [-117.4290242, 33.9263624]]]}, "properties": {"osm_id": 957967219, "name": null, "building": "residential", "amenity": null, "render_height": 7.38}}, {"type": "Feature", "geometry": {"type": "Polygon", "coordinates": [[[-117.428703, 33.9268669], [-117.428843, 33.926788], [-117.429007, 33.9269902], [-117.428867, 33.9270691], [-117.428703, 33.9268669]]]}, "properties": {"osm_id": 957967220, "name": null, "building": "residential", "amenity": null, "render_height": 7.47}}, {"type": "Feature", "geometry": {"type": "Polygon", "coordinates": [[[-117.4289342, 33.9268311], [-117.4291341, 33.9267181], [-117.4292281, 33.926835], [-117.4290282, 33.926948], [-117.4289342, 33.9268311]]]}, "properties": {"osm_id": 957967221, "name": null, "building": "residential", "amenity": null, "render_height": 7.41}}, {"type": "Feature", "geometry": {"type": "Polygon", "coordinates": [[[-117.4291661, 33.9266826], [-117.4294071, 33.9265454], [-117.4295021, 33.9266616], [-117.4292611, 33.9267987], [-117.4291661, 33.9266826]]]}, "properties": {"osm_id": 957967222, "name": null, "building": "residential", "amenity": null, "render_height": 7.56}}, {"type": "Feature", "geometry": {"type": "Polygon", "coordinates": [[[-117.428196, 33.926854], [-117.4284, 33.9267393], [-117.428494, 33.9268553], [-117.42829, 33.92697], [-117.428196, 33.926854]]]}, "properties": {"osm_id": 957972428, "name": null, "building": "residential", "amenity": null, "render_height": 7.5}}, {"type": "Feature", "geometry": {"type": "Polygon", "coordinates": [[[-117.4279159, 33.9270185], [-117.4281599, 33.9268809], [-117.4282539, 33.9269975], [-117.4280099, 33.9271351], [-117.4279159, 33.9270185]]]}, "properties": {"osm_id": 957972429, "name": null, "building": "residential", "amenity": null, "render_height": 7.62}}, {"type": "Feature", "geometry": {"type": "Polygon", "coordinates": [[[-117.4277241, 33.9271064], [-117.4278631, 33.9270282], [-117.4280251, 33.9272284], [-117.4278871, 33.9273067], [-117.4277241, 33.9271064]]]}, "properties": {"osm_id": 957972430, "name": null, "building": "residential", "amenity": null, "render_height": 7.74}}, {"type": "Feature", "geometry": {"type": "Polygon", "coordinates": [[[-117.427926, 33.9273389], [-117.428066, 33.9272597], [-117.428233, 33.927464], [-117.428094, 33.9275433], [-117.427926, 33.9273389]]]}, "properties": {"osm_id": 957975126, "name": null, "building": "apartments", "amenity": null, "render_height": 7.44}}, {"type": "Feature", "geometry": {"type": "Polygon", "coordinates": [[[-117.4278599, 33.9269372], [-117.4279589, 33.9268815], [-117.4279959, 33.9269272], [-117.4278969, 33.9269829], [-117.4278599, 33.9269372]]]}, "properties": {"osm_id": 957975127, "name": null, "building": "residential", "amenity": null, "render_height": 2.29}}, {"type": "Feature", "geometry": {"type": "Polygon", "coordinates": [[[-117.4280184, 33.926652], [-117.4281574, 33.9265736], [-117.4282954, 33.9267442], [-117.4281564, 33.9268226], [-117.4280184, 33.926652]]]}, "properties": {"osm_id": 957975128, "name": null, "building": "residential", "amenity": null, "render_height": 7.56}}, {"type": "Feature", "geometry": {"type": "Polygon", "coordinates": [[[-117.4278783, 33.9265187], [-117.4281203, 33.9263782], [-117.4282163, 33.9264937], [-117.4279743, 33.9266342], [-117.4278783, 33.9265187]]]}, "properties": {"osm_id": 957975983, "name": null, "building": "residential", "amenity": null, "render_height": 7.53}}, {"type": "Feature", "geometry": {"type": "Polygon", "coordinates": [[[-117.4274928, 33.926691], [-117.4277868, 33.9265234], [-117.4278248, 33.9265689], [-117.4275298, 33.9267365], [-117.4274928, 33.926691]]]}, "properties": {"osm_id": 957975984, "name": null, "building": "residential", "amenity": null, "render_height": 2.47}}, {"type": "Feature", "geometry": {"type": "Polygon", "coordinates": [[[-117.4283268, 33.9262827], [-117.4285678, 33.926143], [-117.4286638, 33.9262581], [-117.4284228, 33.9263979], [-117.4283268, 33.9262827]]]}, "properties": {"osm_id": 957975985, "name": null, "building": "residential", "amenity": null, "render_height": 7.47}}, {"type": "Feature", "geometry": {"type": "Polygon", "coordinates": [[[-117.4299289, 33.9259766], [-117.4300799, 33.925892], [-117.4301189, 33.9259404], [-117.4299679, 33.926025], [-117.4299289, 33.9259766]]]}, "properties": {"osm_id": 957975986, "name": null, "building": "yes", "amenity": null, "render_height": 2.74}}, {"type": "Feature", "geometry": {"type": "Polygon", "coordinates": [[[-117.4299336, 33.92843], [-117.4299874, 33.9283993], [-117.430222, 33.9286852], [-117.4301682, 33.9287159], [-117.4299336, 33.92843]]]}, "properties": {"osm_id": 958250298, "name": null, "building": "residential", "amenity": null, "render_height": 2.41}}, {"type": "Feature", "geometry": {"type": "Polygon", "coordinates": [[[-117.4298694, 33.9284657], [-117.4299244, 33.9284341], [-117.4301606, 33.9287197], [-117.4301056, 33.9287513], [-117.4298694, 33.9284657]]]}, "properties": {"osm_id": 958250299, "name": null, "building": "residential", "amenity": null, "render_height": 2.29}}, {"type": "Feature", "geometry": {"type": "Polygon", "coordinates": [[[-117.4298202, 33.928622], [-117.4298743, 33.928591], [-117.4300084, 33.9287538], [-117.4299544, 33.9287847], [-117.4298202, 33.928622]]]}, "properties": {"osm_id": 958250300, "name": null, "building": "residential", "amenity": null, "render_height": 2.29}}, {"type": "Feature", "geometry": {"type": "Polygon", "coordinates": [[[-117.4300196, 33.9283108], [-117.4300742, 33.9282797], [-117.4302951, 33.9285492], [-117.4302405, 33.9285803], [-117.4300196, 33.9283108]]]}, "properties": {"osm_id": 958250301, "name": null, "building": "residential", "amenity": null, "render_height": 2.32}}, {"type": "Feature", "geometry": {"type": "Polygon", "coordinates": [[[-117.4301434, 33.9283026], [-117.4301573, 33.9282959], [-117.4301748, 33.9282977], [-117.4301833, 33.9283089], [-117.4301811, 33.9283234], [-117.4301683, 33.9283305], [-117.4301509, 33.9283283], [-117.4301418, 33.928318], [-117.4301434, 33.9283026]]]}, "properties": {"osm_id": 958250302, "name": null, "building": "university", "amenity": null, "render_height": 3.23}}, {"type": "Feature", "geometry": {"type": "Polygon", "coordinates": [[[-117.4299208, 33.926156], [-117.4300698, 33.9260729], [-117.4300779, 33.9260829], [-117.4300904, 33.9260759], [-117.4301124, 33.926103], [-117.430104, 33.9261077], [-117.4301307, 33.9261408], [-117.4299642, 33.9262336], [-117.4299338, 33.926196], [-117.4299471, 33.9261886], [-117.4299208, 33.926156]]]}, "properties": {"osm_id": 958289334, "name": null, "building": "house", "amenity": null, "render_height": 6.0}}, {"type": "Feature", "geometry": {"type": "Polygon", "coordinates": [[[-117.4301811, 33.926159], [-117.4301554, 33.9261287], [-117.4301487, 33.9261326], [-117.4301056, 33.9260818], [-117.4302003, 33.9260264], [-117.4302715, 33.9261103], [-117.430235, 33.9261316], [-117.4302327, 33.9261288], [-117.4301811, 33.926159]]]}, "properties": {"osm_id": 958289335, "name": null, "building": "yes", "amenity": null, "render_height": 3.26}}, {"type": "Feature", "geometry": {"type": "Polygon", "coordinates": [[[-117.4289798, 33.9274444], [-117.4290226, 33.9274971], [-117.4288296, 33.9276049], [-117.428807, 33.9275771], [-117.4287507, 33.9276086], [-117.4287305, 33.9275837], [-117.4289798, 33.9274444]]]}, "properties": {"osm_id": 958297614, "name": null, "building": "residential", "amenity": null, "render_height": 3.6}}, {"type": "Feature", "geometry": {"type": "Polygon", "coordinates": [[[-117.4287425, 33.9276449], [-117.4287619, 33.9276251], [-117.4287909, 33.9276297], [-117.4288002, 33.9276534], [-117.4287814, 33.9276721], [-117.4287525, 33.9276685], [-117.4287425, 33.9276449]]]}, "properties": {"osm_id": 958297615, "name": null, "building": "residential", "amenity": null, "render_height": 3.57}}, {"type": "Feature", "geometry": {"type": "Polygon", "coordinates": [[[-117.4284327, 33.9279039], [-117.4284873, 33.9278727], [-117.4285884, 33.9279955], [-117.4285338, 33.9280267], [-117.4284327, 33.9279039]]]}, "properties": {"osm_id": 958297616, "name": null, "building": "residential", "amenity": null, "render_height": 2.35}}, {"type": "Feature", "geometry": {"type": "Polygon", "coordinates": [[[-117.428353, 33.9275928], [-117.4284082, 33.9275614], [-117.4286925, 33.9279087], [-117.4286373, 33.9279401], [-117.428353, 33.9275928]]]}, "properties": {"osm_id": 958297617, "name": null, "building": "residential", "amenity": null, "render_height": 2.56}}, {"type": "Feature", "geometry": {"type": "Polygon", "coordinates": [[[-117.4284185, 33.9275535], [-117.4284729, 33.9275226], [-117.4287569, 33.9278707], [-117.4287024, 33.9279015], [-117.4284185, 33.9275535]]]}, "properties": {"osm_id": 958297618, "name": null, "building": "residential", "amenity": null, "render_height": 2.5}}, {"type": "Feature", "geometry": {"type": "Polygon", "coordinates": [[[-117.4290269, 33.9276228], [-117.4293218, 33.9274546], [-117.4293594, 33.9275004], [-117.4290644, 33.9276686], [-117.4290269, 33.9276228]]]}, "properties": {"osm_id": 958297619, "name": null, "building": "residential", "amenity": null, "render_height": 2.59}}, {"type": "Feature", "geometry": {"type": "Polygon", "coordinates": [[[-117.4275747, 33.926954], [-117.4279175, 33.9267574], [-117.4279553, 33.9268032], [-117.4276125, 33.9269998], [-117.4275747, 33.926954]]]}, "properties": {"osm_id": 958297869, "name": null, "building": "residential", "amenity": null, "render_height": 2.53}}, {"type": "Feature", "geometry": {"type": "Polygon", "coordinates": [[[-117.4275297, 33.9268976], [-117.4278735, 33.9267016], [-117.4279109, 33.9267472], [-117.4275671, 33.9269432], [-117.4275297, 33.9268976]]]}, "properties": {"osm_id": 958297870, "name": null, "building": "residential", "amenity": null, "render_height": 2.47}}, {"type": "Feature", "geometry": {"type": "Polygon", "coordinates": [[[-117.4274525, 33.9264981], [-117.4275586, 33.9264401], [-117.4275769, 33.9264632], [-117.4274707, 33.9265213], [-117.4274525, 33.9264981]]]}, "properties": {"osm_id": 958297871, "name": null, "building": "university", "amenity": null, "render_height": 2.38}}, {"type": "Feature", "geometry": {"type": "Polygon", "coordinates": [[[-117.4275954, 33.9261109], [-117.4276186, 33.9260983], [-117.4276483, 33.9261362], [-117.4276251, 33.9261488], [-117.4275954, 33.9261109]]]}, "properties": {"osm_id": 958297872, "name": null, "building": "university", "amenity": null, "render_height": 2.44}}, {"type": "Feature", "geometry": {"type": "Polygon", "coordinates": [[[-117.4275514, 33.9261214], [-117.4275848, 33.9261034], [-117.4276515, 33.9261894], [-117.4276181, 33.9262073], [-117.4275514, 33.9261214]]]}, "properties": {"osm_id": 958297873, "name": null, "building": "university", "amenity": null, "render_height": 2.41}}, {"type": "Feature", "geometry": {"type": "Polygon", "coordinates": [[[-117.4278338, 33.9261709], [-117.4279528, 33.9261224], [-117.4279989, 33.9262011], [-117.4278799, 33.9262496], [-117.4278338, 33.9261709]]]}, "properties": {"osm_id": 958297874, "name": null, "building": "university", "amenity": null, "render_height": 3.17}}, {"type": "Feature", "geometry": {"type": "Polygon", "coordinates": [[[-117.4279673, 33.9261166], [-117.4280858, 33.9260679], [-117.4281024, 33.926096], [-117.4279839, 33.9261447], [-117.4279673, 33.9261166]]]}, "properties": {"osm_id": 958297875, "name": null, "building": "university", "amenity": null, "render_height": 3.26}}, {"type": "Feature", "geometry": {"type": "Polygon", "coordinates": [[[-117.427309, 33.9258264], [-117.427395, 33.9257797], [-117.4276139, 33.9260597], [-117.4275279, 33.9261064], [-117.427309, 33.9258264]]]}, "properties": {"osm_id": 958297876, "name": null, "building": "university", "amenity": null, "render_height": 5.43}}, {"type": "Feature", "geometry": {"type": "Polygon", "coordinates": [[[-117.428099, 33.9248557], [-117.4281791, 33.9247991], [-117.4285424, 33.9251563], [-117.4284624, 33.9252129], [-117.428099, 33.9248557]]]}, "properties": {"osm_id": 958297877, "name": null, "building": "university", "amenity": null, "render_height": 4.94}}, {"type": "Feature", "geometry": {"type": "Polygon", "coordinates": [[[-117.4288728, 33.925937], [-117.4289274, 33.9259059], [-117.4291614, 33.9261914], [-117.4291068, 33.9262225], [-117.4288728, 33.925937]]]}, "properties": {"osm_id": 958297878, "name": null, "building": "residential", "amenity": null, "render_height": 2.59}}, {"type": "Feature", "geometry": {"type": "Polygon", "coordinates": [[[-117.4289673, 33.926271], [-117.4287697, 33.9260266], [-117.4287681, 33.9260275], [-117.4287497, 33.9260047], [-117.4288066, 33.9259727], [-117.4290227, 33.9262398], [-117.4289673, 33.926271]]]}, "properties": {"osm_id": 958297879, "name": null, "building": "residential", "amenity": null, "render_height": 2.32}}, {"type": "Feature", "geometry": {"type": "Polygon", "coordinates": [[[-117.4286872, 33.9260433], [-117.4287417, 33.9260124], [-117.4289575, 33.9262765], [-117.428903, 33.9263074], [-117.4286872, 33.9260433]]]}, "properties": {"osm_id": 958297880, "name": null, "building": "residential", "amenity": null, "render_height": 2.26}}, {"type": "Feature", "geometry": {"type": "Polygon", "coordinates": [[[-117.4294777, 33.9268943], [-117.4295316, 33.9268639], [-117.4297317, 33.9271108], [-117.4296777, 33.9271412], [-117.4294777, 33.9268943]]]}, "properties": {"osm_id": 958297881, "name": null, "building": "residential", "amenity": null, "render_height": 2.35}}, {"type": "Feature", "geometry": {"type": "Polygon", "coordinates": [[[-117.4294129, 33.9269356], [-117.4294681, 33.9269042], [-117.4296701, 33.9271502], [-117.4296149, 33.9271817], [-117.4294129, 33.9269356]]]}, "properties": {"osm_id": 958297882, "name": null, "building": "residential", "amenity": null, "render_height": 2.29}}, {"type": "Feature", "geometry": {"type": "Polygon", "coordinates": [[[-117.4292544, 33.9269584], [-117.4293093, 33.926927], [-117.4295439, 33.9272124], [-117.4294891, 33.9272437], [-117.4292544, 33.9269584]]]}, "properties": {"osm_id": 958297883, "name": null, "building": "residential", "amenity": null, "render_height": 2.62}}, {"type": "Feature", "geometry": {"type": "Polygon", "coordinates": [[[-117.4292659, 33.9268549], [-117.4295122, 33.9267155], [-117.4295492, 33.9267609], [-117.4293028, 33.9269003], [-117.4292659, 33.9268549]]]}, "properties": {"osm_id": 958297884, "name": null, "building": "residential", "amenity": null, "render_height": 2.53}}, {"type": "Feature", "geometry": {"type": "Polygon", "coordinates": [[[-117.4297725, 33.9274095], [-117.4299698, 33.9272974], [-117.430007, 33.9273428], [-117.4298096, 33.927455], [-117.4297725, 33.9274095]]]}, "properties": {"osm_id": 958297885, "name": null, "building": "residential", "amenity": null, "render_height": 2.41}}, {"type": "Feature", "geometry": {"type": "Polygon", "coordinates": [[[-117.4290771, 33.9286171], [-117.4291312, 33.9285863], [-117.4294328, 33.9289533], [-117.4293788, 33.9289841], [-117.4290771, 33.9286171]]]}, "properties": {"osm_id": 958298163, "name": null, "building": "residential", "amenity": null, "render_height": 2.56}}, {"type": "Feature", "geometry": {"type": "Polygon", "coordinates": [[[-117.4290107, 33.9286517], [-117.429064, 33.9286212], [-117.4293668, 33.9289888], [-117.4293135, 33.9290193], [-117.4290107, 33.9286517]]]}, "properties": {"osm_id": 958298164, "name": null, "building": "residential", "amenity": null, "render_height": 2.68}}, {"type": "Feature", "geometry": {"type": "Polygon", "coordinates": [[[-117.4232716, 33.928284], [-117.423337, 33.9282453], [-117.423412, 33.9283335], [-117.4233466, 33.9283722], [-117.4232716, 33.928284]]]}, "properties": {"osm_id": 958304244, "name": null, "building": "university", "amenity": null, "render_height": 2.44}}, {"type": "Feature", "geometry": {"type": "Polygon", "coordinates": [[[-117.4225349, 33.9287758], [-117.4224421, 33.9286607], [-117.422425, 33.9286657], [-117.4224033, 33.9286643], [-117.4223842, 33.9286561], [-117.4223713, 33.9286391], [-117.4223734, 33.9286187], [-117.4223805, 33.9286024], [-117.4223948, 33.9285942], [-117.422414, 33.928591], [-117.4224364, 33.9285929], [-117.4224544, 33.9286043], [-117.4225834, 33.928531], [-117.4227491, 33.9287318], [-117.4226373, 33.9287954], [-117.4225349, 33.9287758]]]}, "properties": {"osm_id": 958304245, "name": null, "building": "retail", "amenity": null, "render_height": 4.27}}, {"type": "Feature", "geometry": {"type": "Polygon", "coordinates": [[[-117.4255644, 33.9288992], [-117.4254766, 33.9287899], [-117.4255767, 33.9287345], [-117.4256646, 33.9288438], [-117.4255644, 33.9288992]]]}, "properties": {"osm_id": 958304246, "name": null, "building": "university", "amenity": null, "render_height": 3.72}}, {"type": "Feature", "geometry": {"type": "Polygon", "coordinates": [[[-117.4252074, 33.9297187], [-117.4255266, 33.929538], [-117.4255642, 33.9295842], [-117.4252451, 33.9297649], [-117.4252074, 33.9297187]]]}, "properties": {"osm_id": 958304247, "name": null, "building": "university", "amenity": null, "render_height": 3.72}}, {"type": "Feature", "geometry": {"type": "Polygon", "coordinates": [[[-117.4265206, 33.9285386], [-117.4265548, 33.928581], [-117.4264456, 33.9286418], [-117.4264113, 33.9285993], [-117.4265206, 33.9285386]]]}, "properties": {"osm_id": 958304248, "name": null, "building": "yes", "amenity": null, "render_height": 8.0}}, {"type": "Feature", "geometry": {"type": "Polygon", "coordinates": [[[-117.4245863, 33.9319635], [-117.4246951, 33.9319018], [-117.4248487, 33.9320897], [-117.4247399, 33.9321515], [-117.4245863, 33.9319635]]]}, "properties": {"osm_id": 958305759, "name": null, "building": "university", "amenity": null, "render_height": 2.71}}, {"type": "Feature", "geometry": {"type": "Polygon", "coordinates": [[[-117.4244386, 33.931779], [-117.4245478, 33.9317172], [-117.4246843, 33.931885], [-117.4245751, 33.9319467], [-117.4244386, 33.931779]]]}, "properties": {"osm_id": 958305760, "name": null, "building": "university", "amenity": null, "render_height": 2.87}}, {"type": "Feature", "geometry": {"type": "Polygon", "coordinates": [[[-117.4243067, 33.9317799], [-117.4241554, 33.9315946], [-117.4242296, 33.9315525], [-117.424266, 33.9315971], [-117.4242416, 33.931611], [-117.4242501, 33.9316215], [-117.4242752, 33.9316073], [-117.4243385, 33.9316849], [-117.4243137, 33.931699], [-117.424323, 33.9317103], [-117.4243497, 33.9316952], [-117.4243834, 33.9317364], [-117.4243067, 33.9317799]]]}, "properties": {"osm_id": 958305761, "name": null, "building": "university", "amenity": null, "render_height": 6.86}}, {"type": "Feature", "geometry": {"type": "Polygon", "coordinates": [[[-117.424058, 33.9315195], [-117.4241482, 33.9314678], [-117.4241864, 33.931514], [-117.4240962, 33.9315657], [-117.424058, 33.9315195]]]}, "properties": {"osm_id": 958305762, "name": null, "building": "university", "amenity": null, "render_height": 2.47}}, {"type": "Feature", "geometry": {"type": "Polygon", "coordinates": [[[-117.4241716, 33.9314547], [-117.4246787, 33.9311664], [-117.4247164, 33.9312125], [-117.4242093, 33.9315009], [-117.4241716, 33.9314547]]]}, "properties": {"osm_id": 958305763, "name": null, "building": "university", "amenity": null, "render_height": 2.93}}, {"type": "Feature", "geometry": {"type": "Polygon", "coordinates": [[[-117.4239459, 33.9306227], [-117.4240436, 33.9305668], [-117.4240832, 33.930614], [-117.423985, 33.9306702], [-117.4239459, 33.9306227]]]}, "properties": {"osm_id": 958306018, "name": null, "building": "university", "amenity": null, "render_height": 3.47}}, {"type": "Feature", "geometry": {"type": "Polygon", "coordinates": [[[-117.4236688, 33.9301401], [-117.4237945, 33.9300672], [-117.4238349, 33.9301154], [-117.423709, 33.9301883], [-117.4236688, 33.9301401]]]}, "properties": {"osm_id": 958306019, "name": null, "building": "university", "amenity": null, "render_height": 3.93}}, {"type": "Feature", "geometry": {"type": "Polygon", "coordinates": [[[-117.4225867, 33.93047], [-117.4225227, 33.9303909], [-117.4225136, 33.930396], [-117.4224771, 33.9303509], [-117.4224856, 33.9303461], [-117.4224514, 33.9303039], [-117.4225708, 33.9302366], [-117.4226113, 33.9302865], [-117.4226046, 33.9302903], [-117.422654, 33.9303512], [-117.4226616, 33.9303469], [-117.4227067, 33.9304025], [-117.4225867, 33.93047]]]}, "properties": {"osm_id": 958306020, "name": null, "building": "university", "amenity": null, "render_height": 10.06}}, {"type": "Feature", "geometry": {"type": "Polygon", "coordinates": [[[-117.4223028, 33.9329244], [-117.4224232, 33.9328555], [-117.4224674, 33.9329092], [-117.4223471, 33.9329781], [-117.4223028, 33.9329244]]]}, "properties": {"osm_id": 958306539, "name": null, "building": "residential", "amenity": null, "render_height": 3.66}}, {"type": "Feature", "geometry": {"type": "Polygon", "coordinates": [[[-117.4221848, 33.9330053], [-117.4222852, 33.9329497], [-117.4223218, 33.9329957], [-117.4222214, 33.9330513], [-117.4221848, 33.9330053]]]}, "properties": {"osm_id": 958306540, "name": null, "building": "residential", "amenity": null, "render_height": 2.59}}, {"type": "Feature", "geometry": {"type": "Polygon", "coordinates": [[[-117.4224492, 33.9328419], [-117.42257, 33.9327726], [-117.4226144, 33.9328264], [-117.4224936, 33.9328957], [-117.4224492, 33.9328419]]]}, "properties": {"osm_id": 958306541, "name": null, "building": "residential", "amenity": null, "render_height": 3.69}}, {"type": "Feature", "geometry": {"type": "Polygon", "coordinates": [[[-117.4225909, 33.9327591], [-117.4227402, 33.9326732], [-117.422783, 33.9327285], [-117.4226357, 33.9328132], [-117.4225909, 33.9327591]]]}, "properties": {"osm_id": 958306542, "name": null, "building": "residential", "amenity": null, "render_height": 3.66}}, {"type": "Feature", "geometry": {"type": "Polygon", "coordinates": [[[-117.4224847, 33.9334814], [-117.4225404, 33.9334498], [-117.4226246, 33.9335529], [-117.4225689, 33.9335845], [-117.4224847, 33.9334814]]]}, "properties": {"osm_id": 958971557, "name": null, "building": "residential", "amenity": null, "render_height": 3.87}}, {"type": "Feature", "geometry": {"type": "Polygon", "coordinates": [[[-117.4223827, 33.9333511], [-117.4224381, 33.9333201], [-117.4225216, 33.933424], [-117.4224661, 33.9334549], [-117.4223827, 33.9333511]]]}, "properties": {"osm_id": 958971558, "name": null, "building": "residential", "amenity": null, "render_height": 2.77}}, {"type": "Feature", "geometry": {"type": "Polygon", "coordinates": [[[-117.4222773, 33.9332273], [-117.4223326, 33.9331958], [-117.4224164, 33.9332981], [-117.4223611, 33.9333296], [-117.4222773, 33.9332273]]]}, "properties": {"osm_id": 958971559, "name": null, "building": "residential", "amenity": null, "render_height": 2.87}}, {"type": "Feature", "geometry": {"type": "Polygon", "coordinates": [[[-117.4221747, 33.9330983], [-117.4222291, 33.9330678], [-117.4223119, 33.9331704], [-117.4222575, 33.9332009], [-117.4221747, 33.9330983]]]}, "properties": {"osm_id": 958971560, "name": null, "building": "residential", "amenity": null, "render_height": 2.68}}, {"type": "Feature", "geometry": {"type": "Polygon", "coordinates": [[[-117.4223516, 33.933116], [-117.4224066, 33.9330848], [-117.4225066, 33.9332075], [-117.4224517, 33.9332387], [-117.4223516, 33.933116]]]}, "properties": {"osm_id": 958971561, "name": null, "building": "residential", "amenity": null, "render_height": 2.53}}, {"type": "Feature", "geometry": {"type": "Polygon", "coordinates": [[[-117.4225777, 33.9333959], [-117.4226337, 33.933364], [-117.4227181, 33.9334672], [-117.4226622, 33.933499], [-117.4225777, 33.9333959]]]}, "properties": {"osm_id": 958971562, "name": null, "building": "residential", "amenity": null, "render_height": 3.9}}, {"type": "Feature", "geometry": {"type": "Polygon", "coordinates": [[[-117.4235387, 33.9306346], [-117.4236944, 33.9305476], [-117.4238519, 33.9307415], [-117.4237383, 33.9308051], [-117.4237515, 33.9308215], [-117.4237095, 33.930845], [-117.4235387, 33.9306346]]]}, "properties": {"osm_id": 958971565, "name": null, "building": "university", "amenity": null, "render_height": 5.36}}, {"type": "Feature", "geometry": {"type": "Polygon", "coordinates": [[[-117.4253029, 33.9313467], [-117.4249026, 33.9308553], [-117.4249582, 33.9308239], [-117.4250923, 33.9309886], [-117.4251001, 33.9309841], [-117.4253662, 33.9313109], [-117.4253029, 33.9313467]]]}, "properties": {"osm_id": 958971751, "name": null, "building": "university", "amenity": null, "render_height": 2.53}}, {"type": "Feature", "geometry": {"type": "Polygon", "coordinates": [[[-117.4253208, 33.9313725], [-117.4253851, 33.9313357], [-117.4256386, 33.9316436], [-117.4255743, 33.9316804], [-117.4253208, 33.9313725]]]}, "properties": {"osm_id": 958971752, "name": null, "building": "university", "amenity": null, "render_height": 2.71}}, {"type": "Feature", "geometry": {"type": "Polygon", "coordinates": [[[-117.4275752, 33.9242906], [-117.4274794, 33.9241719], [-117.4275533, 33.9241308], [-117.4275985, 33.9241869], [-117.4276802, 33.9241415], [-117.4277308, 33.9242041], [-117.4275752, 33.9242906]]]}, "properties": {"osm_id": 959571395, "name": null, "building": "house", "amenity": null, "render_height": 3.78}}, {"type": "Feature", "geometry": {"type": "Polygon", "coordinates": [[[-117.4212898, 33.928104], [-117.4223949, 33.9274809], [-117.4219389, 33.9269044], [-117.4208231, 33.9275454], [-117.4212898, 33.928104]]]}, "properties": {"osm_id": 1012294897, "name": null, "building": "yes", "amenity": "parking", "render_height": 8.0}}, {"type": "Feature", "geometry": {"type": "Polygon", "coordinates": [[[-117.4218092, 33.9289434], [-117.4218571, 33.9288786], [-117.4218092, 33.9288556], [-117.4217664, 33.9289246], [-117.4218092, 33.9289434]]]}, "properties": {"osm_id": 1012294900, "name": null, "building": "yes", "amenity": null, "render_height": 8.0}}, {"type": "Feature", "geometry": {"type": "MultiPolygon", "coordinates": [[[[-117.4262358, 33.926543], [-117.4260656, 33.926511], [-117.4260175, 33.9266869], [-117.4261878, 33.926719], [-117.4262358, 33.926543]]], [[[-117.4258921, 33.9268905], [-117.4257227, 33.9268593], [-117.4258271, 33.9264689], [-117.4259965, 33.9265001], [-117.4258921, 33.9268905]]]]}, "properties": {"osm_id": 8589347, "name": "Athletic Training", "building": "yes", "amenity": null, "render_height": 8.0}}, {"type": "Feature", "geometry": {"type": "MultiPolygon", "coordinates": [[[[-117.4260447, 33.9260313], [-117.425954, 33.9260828], [-117.4257762, 33.9258669], [-117.4258799, 33.9258081], [-117.4259168, 33.925853], [-117.4259039, 33.9258603], [-117.4260447, 33.9260313]]], [[[-117.425741, 33.9257983], [-117.4256496, 33.925689], [-117.4257025, 33.9256585], [-117.4257736, 33.9257436], [-117.4257861, 33.9257364], [-117.4258256, 33.9257837], [-117.4257874, 33.9258057], [-117.4257682, 33.9257827], [-117.425741, 33.9257983]]]]}, "properties": {"osm_id": 8589348, "name": "Aquatic Center", "building": "yes", "amenity": null, "render_height": 8.0}}, {"type": "Feature", "geometry": {"type": "MultiPolygon", "coordinates": [[[[-117.4239178, 33.9322334], [-117.4237609, 33.9320421], [-117.4242458, 33.9317682], [-117.4244396, 33.9320045], [-117.4243237, 33.9320699], [-117.4243284, 33.9320756], [-117.4242478, 33.9321211], [-117.4242096, 33.9320745], [-117.4242413, 33.9320566], [-117.424238, 33.9320525], [-117.4239178, 33.9322334]]], [[[-117.4244422, 33.9324869], [-117.42438, 33.9324102], [-117.4244869, 33.9323505], [-117.4244799, 33.9323418], [-117.4244835, 33.9323182], [-117.4243137, 33.9321089], [-117.4244389, 33.9320389], [-117.4246867, 33.9323443], [-117.4246474, 33.9323663], [-117.4246771, 33.932403], [-117.424589, 33.9324522], [-117.4245626, 33.9324196], [-117.4244422, 33.9324869]]], [[[-117.4242745, 33.9326676], [-117.4242124, 33.9325927], [-117.4242203, 33.9325882], [-117.4241603, 33.9325157], [-117.424252, 33.9324634], [-117.4242914, 33.932511], [-117.4243902, 33.9324546], [-117.4244553, 33.9325332], [-117.4243347, 33.932602], [-117.4243414, 33.93261], [-117.4243127, 33.9326264], [-117.4243237, 33.9326396], [-117.4242745, 33.9326676]]]]}, "properties": {"osm_id": 8589349, "name": "Lambeth / Nursing Annex", "building": "yes", "amenity": null, "render_height": 8.0}}]}