{"type": "FeatureCollection", "features": [{"type": "Feature", "geometry": {"type": "Polygon", "coordinates": [[[-117.4480732, 33.9562141], [-117.4480402, 33.9551784], [-117.4480367, 33.9550712], [-117.44803, 33.9548596], [-117.4471394, 33.9546779], [-117.4471783, 33.9543677], [-117.447215, 33.9539646], [-117.4439294, 33.9533478], [-117.4438838, 33.9534987], [-117.4419119, 33.9531092], [-117.4419045, 33.9531396], [-117.439067, 33.9526132], [-117.4389576, 33.9526605], [-117.438859, 33.9528754], [-117.4388728, 33.9529838], [-117.4391043, 33.9534262], [-117.4384927, 33.9532439], [-117.437987, 33.9531509], [-117.4373118, 33.9530841], [-117.4357674, 33.9530958], [-117.435767, 33.9530804], [-117.4340326, 33.9530963], [-117.4340278, 33.9518482], [-117.4318076, 33.9514169], [-117.4292551, 33.9514364], [-117.4292519, 33.9511745], [-117.4292478, 33.9508465], [-117.4292448, 33.9506027], [-117.4283498, 33.9506045], [-117.4287935, 33.9497681], [-117.4288404, 33.9496658], [-117.4288674, 33.94955], [-117.4291151, 33.9487359], [-117.4292102, 33.94855], [-117.4292947, 33.9484419], [-117.4294297, 33.9483133], [-117.42956, 33.9482082], [-117.4296245, 33.9481673], [-117.4338049, 33.9489712], [-117.4342435, 33.9490538], [-117.4341766, 33.949305], [-117.4351966, 33.9494909], [-117.4353081, 33.9494306], [-117.4353891, 33.9491258], [-117.4353961, 33.9488483], [-117.4354818, 33.9487772], [-117.4360855, 33.9487761], [-117.4365382, 33.9487753], [-117.4365359, 33.9488327], [-117.4373707, 33.9488283], [-117.4443381, 33.9487918], [-117.4449587, 33.9487876], [-117.4449559, 33.9487268], [-117.4452865, 33.9487299], [-117.4453372, 33.9487432], [-117.4453625, 33.948765], [-117.4453794, 33.9488024], [-117.4454662, 33.9486152], [-117.4458029, 33.9485866], [-117.4458508, 33.9486028], [-117.4476261, 33.9485894], [-117.4476129, 33.947231], [-117.4479988, 33.9472262], [-117.4479651, 33.9460005], [-117.448815, 33.945993], [-117.4489639, 33.9461241], [-117.4489295, 33.946199], [-117.4488813, 33.9462673], [-117.4488723, 33.946316], [-117.4488823, 33.9463663], [-117.44891, 33.9464066], [-117.44895, 33.9464362], [-117.4489963, 33.9464601], [-117.449038, 33.9465051], [-117.4490595, 33.9465717], [-117.4491421, 33.9494191], [-117.4491963, 33.9494032], [-117.4492448, 33.9494042], [-117.449308, 33.9493954], [-117.451981, 33.9493918], [-117.451913, 33.9513132], [-117.4519271, 33.9515027], [-117.4519818, 33.9517131], [-117.4520675, 33.9519008], [-117.4521555, 33.9520322], [-117.4523222, 33.9522162], [-117.4524959, 33.9523526], [-117.4527061, 33.9524713], [-117.4529925, 33.952632], [-117.4533106, 33.9528443], [-117.4535007, 33.9530565], [-117.4536193, 33.9532736], [-117.4536991, 33.9535716], [-117.4536885, 33.9546465], [-117.4536674, 33.9548987], [-117.45357, 33.9551761], [-117.4533712, 33.9555458], [-117.4532088, 33.9557499], [-117.4529505, 33.9559921], [-117.4526923, 33.9562172], [-117.4480732, 33.9562141]]]}, "properties": {"osm_id": 127837011, "name": "Riverside Municipal Airport", "building": null, "amenity": null, "render_height": 8.0}}]}